{"type":"FeatureCollection","source":"City of Chicago Major Streets (ueqs-5wr6), reprojected from State Plane Illinois East to WGS84","features":[{"type":"Feature","properties":{"name":"47th","grid":"4700 S"},"geometry":{"type":"MultiLineString","coordinates":[[[-87.5924,41.8097],[-87.7529,41.8075]]]}},{"type":"Feature","properties":{"name":"63rd","grid":"6300 S"},"geometry":{"type":"MultiLineString","coordinates":[[[-87.6419,41.7798],[-87.8009,41.7773]],[[-87.5865,41.7806],[-87.6426,41.7803]]]}},{"type":"Feature","properties":{"name":"79th","grid":"7900 S"},"geometry":{"type":"MultiLineString","coordinates":[[[-87.7414,41.7491],[-87.5452,41.7521]],[[-87.6828,41.7501],[-87.7372,41.7492]]]}},{"type":"Feature","properties":{"name":"95th","grid":"9500 S"},"geometry":{"type":"MultiLineString","coordinates":[[[-87.5348,41.7229],[-87.6821,41.7209]]]}},{"type":"Feature","properties":{"name":"Ashland","grid":"1600 W"},"geometry":{"type":"MultiLineString","coordinates":[[[-87.6658,41.8424],[-87.6678,41.9175],[-87.6686,41.9212],[-87.6696,41.9868]],[[-87.6658,41.8409],[-87.6627,41.7202]],[[-87.6608,41.6893],[-87.6616,41.6856],[-87.6612,41.6721]],[[-87.662,41.6967],[-87.6618,41.692],[-87.6634,41.6897]]]}},{"type":"Feature","properties":{"name":"Belmont","grid":"3200 N"},"geometry":{"type":"MultiLineString","coordinates":[[[-87.6381,41.9406],[-87.8496,41.9373]]]}},{"type":"Feature","properties":{"name":"Cermak","grid":"2200 S"},"geometry":{"type":"MultiLineString","coordinates":[[[-87.6176,41.853],[-87.7109,41.8516]],[[-87.7111,41.852],[-87.7394,41.8514]]]}},{"type":"Feature","properties":{"name":"Cicero","grid":"4800 W"},"geometry":{"type":"MultiLineString","coordinates":[[[-87.7477,41.968],[-87.7448,41.8659]],[[-87.7435,41.822],[-87.7428,41.7946],[-87.7416,41.7922],[-87.7413,41.7857],[-87.7424,41.7803],[-87.7411,41.7345]],[[-87.7479,41.9697],[-87.7483,41.9973]],[[-87.7397,41.6909],[-87.7394,41.6836]]]}},{"type":"Feature","properties":{"name":"Dan Ryan","grid":null,"kind":"xway"},"geometry":{"type":"MultiLineString","coordinates":[[[-87.6343,41.8454],[-87.6314,41.8442],[-87.6303,41.8423],[-87.6296,41.8126],[-87.6314,41.8087],[-87.6306,41.7803],[-87.63,41.7779],[-87.627,41.7753],[-87.6257,41.7724],[-87.6241,41.7202]],[[-87.6315,41.7835],[-87.631,41.7782],[-87.6274,41.7751],[-87.6261,41.7723],[-87.6248,41.7195]],[[-87.6456,41.8752],[-87.6444,41.8592],[-87.645,41.8506],[-87.6428,41.8476],[-87.6338,41.845],[-87.6316,41.8428],[-87.6307,41.8139]],[[-87.6452,41.8753],[-87.6441,41.8576],[-87.645,41.8511],[-87.6424,41.8475],[-87.6346,41.8455]]]}},{"type":"Feature","properties":{"name":"Devon","grid":"6400 N"},"geometry":{"type":"MultiLineString","coordinates":[[[-87.755,41.9974],[-87.7991,41.9968],[-87.8074,41.9978],[-87.8214,41.9969]],[[-87.6605,41.9982],[-87.7186,41.9973]],[[-87.7521,41.9973],[-87.7565,41.9973]],[[-87.7502,41.9973],[-87.7502,41.9973]]]}},{"type":"Feature","properties":{"name":"Eisenhower","grid":null,"kind":"xway"},"geometry":{"type":"MultiLineString","coordinates":[[[-87.7743,41.8712],[-87.7409,41.8718],[-87.7331,41.874],[-87.7081,41.8743],[-87.6973,41.8757],[-87.6337,41.8756],[-87.6983,41.8752],[-87.7089,41.8739],[-87.7332,41.8736],[-87.7409,41.8715],[-87.7743,41.8709]],[[-87.636,41.8757],[-87.636,41.8757]],[[-87.6359,41.8756],[-87.6359,41.8756]]]}},{"type":"Feature","properties":{"name":"Halsted","grid":"800 W"},"geometry":{"type":"MultiLineString","coordinates":[[[-87.6496,41.9512],[-87.6447,41.7765]],[[-87.6447,41.7764],[-87.6412,41.6575]],[[-87.6444,41.7758],[-87.6447,41.7754]],[[-87.6468,41.8617],[-87.6468,41.8617]]]}},{"type":"Feature","properties":{"name":"Irving Park","grid":"4000 N"},"geometry":{"type":"MultiLineString","coordinates":[[[-87.6453,41.9546],[-87.8363,41.952],[-87.8483,41.9527]],[[-87.9181,41.9579],[-87.9321,41.9599]],[[-87.8841,41.9576],[-87.8894,41.958]],[[-87.8842,41.9574],[-87.8887,41.958]]]}},{"type":"Feature","properties":{"name":"Kedzie","grid":"3200 W"},"geometry":{"type":"MultiLineString","coordinates":[[[-87.7071,41.9207],[-87.7021,41.7352]],[[-87.7074,41.929],[-87.7089,41.9831]],[[-87.709,41.9914],[-87.7087,42.0191]],[[-87.7014,41.7071],[-87.7006,41.6843]]]}},{"type":"Feature","properties":{"name":"Kennedy","grid":null,"kind":"xway"},"geometry":{"type":"MultiLineString","coordinates":[[[-87.7006,41.9347],[-87.7105,41.9405],[-87.7161,41.9424],[-87.7197,41.9475],[-87.746,41.9626],[-87.7849,41.9823],[-87.8137,41.9822],[-87.8275,41.9844],[-87.8711,41.9832],[-87.8757,41.9822],[-87.8888,41.9769],[-87.8913,41.9773],[-87.896,41.9813],[-87.8983,41.9816],[-87.8992,41.9785],[-87.9031,41.9763],[-87.9061,41.9778],[-87.9057,41.9802]],[[-87.743,41.9613],[-87.785,41.9826],[-87.8124,41.9824],[-87.8283,41.9847],[-87.8488,41.984],[-87.8539,41.9849],[-87.8594,41.9837],[-87.8696,41.9844],[-87.8885,41.9772],[-87.8914,41.9777],[-87.8963,41.982],[-87.8989,41.9821]],[[-87.6452,41.8753],[-87.6465,41.8873],[-87.6585,41.8969],[-87.6606,41.901],[-87.6612,41.9068],[-87.6692,41.9171],[-87.7088,41.94],[-87.7149,41.9422],[-87.7191,41.9477],[-87.7423,41.9608]],[[-87.6456,41.8752],[-87.6465,41.8868],[-87.6486,41.8894],[-87.659,41.8967],[-87.6612,41.9016],[-87.6616,41.9068],[-87.6693,41.9168],[-87.6996,41.9341]]]}},{"type":"Feature","properties":{"name":"Madison","grid":"0 N/S"},"geometry":{"type":"MultiLineString","coordinates":[[[-87.6244,41.8821],[-87.7747,41.8801]]]}},{"type":"Feature","properties":{"name":"North","grid":"1600 N"},"geometry":{"type":"MultiLineString","coordinates":[[[-87.6267,41.9115],[-87.8057,41.9088]]]}},{"type":"Feature","properties":{"name":null,"grid":null,"kind":"xway"},"geometry":{"type":"MultiLineString","coordinates":[[[-87.6153,41.8482],[-87.6238,41.8481],[-87.6277,41.8471],[-87.6421,41.8473],[-87.6506,41.8456],[-87.6675,41.8377],[-87.6805,41.837],[-87.7337,41.8202]],[[-87.6163,41.848],[-87.6278,41.8469],[-87.6424,41.8471],[-87.6504,41.8454],[-87.6682,41.8373],[-87.6812,41.8365],[-87.7316,41.8206]],[[-87.7338,41.8199],[-87.745,41.8165]],[[-87.7368,41.8193],[-87.745,41.8168]]]}},{"type":"Feature","properties":{"name":null,"grid":null,"kind":"xway"},"geometry":{"type":"MultiLineString","coordinates":[[[-87.7423,41.9608],[-87.7468,41.9651],[-87.7474,41.9764],[-87.7466,41.98],[-87.7513,41.9872],[-87.75,41.9973]],[[-87.7435,41.9608],[-87.7458,41.9621],[-87.7471,41.9642],[-87.7476,41.9764],[-87.7468,41.9801],[-87.7515,41.9869],[-87.7502,41.9973]]]}},{"type":"Feature","properties":{"name":"Pulaski","grid":"4000 W"},"geometry":{"type":"MultiLineString","coordinates":[[[-87.7271,41.9226],[-87.7214,41.7349]],[[-87.7264,41.9227],[-87.7289,41.9973]],[[-87.7211,41.7132],[-87.7201,41.684]]]}},{"type":"Feature","properties":{"name":"Roosevelt","grid":"1200 S"},"geometry":{"type":"MultiLineString","coordinates":[[[-87.6204,41.8675],[-87.7741,41.8655]]]}},{"type":"Feature","properties":{"name":"Western","grid":"2400 W"},"geometry":{"type":"MultiLineString","coordinates":[[[-87.6846,41.8342],[-87.6902,42.0195]],[[-87.6807,41.6773],[-87.6851,41.8312],[-87.6851,41.8321],[-87.6845,41.8306],[-87.6845,41.8339],[-87.6836,41.8002]],[[-87.6852,41.8378],[-87.6851,41.8321]],[[-87.6836,41.7988],[-87.6834,41.7936],[-87.684,41.7939]]]}}]}