{"type":"FeatureCollection","source":"p293-wvbd (City of Chicago, 2023 ward map)","features":[{"type":"Feature","properties":{"ward":1,"label":[-87.695,41.9242]},"geometry":{"type":"MultiPolygon","coordinates":[[[[-87.6878,41.9286],[-87.6872,41.9103],[-87.6652,41.9107],[-87.6643,41.9094],[-87.6624,41.9077],[-87.6618,41.907],[-87.6613,41.906],[-87.6611,41.905],[-87.6613,41.9034],[-87.6665,41.9034],[-87.6625,41.9008],[-87.6625,41.8984],[-87.6649,41.8984],[-87.6649,41.8977],[-87.6649,41.8961],[-87.6657,41.8961],[-87.6656,41.8934],[-87.6574,41.8935],[-87.6574,41.8929],[-87.6599,41.89],[-87.6609,41.89],[-87.6608,41.8891],[-87.6607,41.8889],[-87.6619,41.8889],[-87.6621,41.8889],[-87.6622,41.889],[-87.6622,41.8899],[-87.6655,41.8899],[-87.6655,41.891],[-87.672,41.8909],[-87.6723,41.8996],[-87.6845,41.8994],[-87.6845,41.9003],[-87.687,41.9003],[-87.6871,41.9067],[-87.692,41.9066],[-87.6922,41.9139],[-87.6971,41.9139],[-87.6971,41.914],[-87.6976,41.914],[-87.6977,41.9175],[-87.707,41.9174],[-87.7071,41.9207],[-87.7075,41.9208],[-87.7076,41.9211],[-87.7075,41.9212],[-87.7074,41.9214],[-87.7071,41.9215],[-87.7071,41.9223],[-87.7022,41.9224],[-87.7023,41.926],[-87.7058,41.9281],[-87.7055,41.9283],[-87.7052,41.9284],[-87.7049,41.9284],[-87.705,41.932],[-87.694,41.9321],[-87.691,41.9303],[-87.6878,41.9286]]]]}},{"type":"Feature","properties":{"ward":2,"label":[-87.6333,41.9077]},"geometry":{"type":"MultiPolygon","coordinates":[[[[-87.6252,41.904],[-87.6237,41.904],[-87.6232,41.9037],[-87.6226,41.9032],[-87.6219,41.9024],[-87.6219,41.902],[-87.6199,41.9015],[-87.6194,41.9013],[-87.6192,41.901],[-87.6149,41.8947],[-87.6137,41.8931],[-87.6141,41.893],[-87.614,41.8926],[-87.6139,41.8911],[-87.6226,41.8909],[-87.6228,41.895],[-87.6282,41.8949],[-87.6282,41.8957],[-87.6268,41.8957],[-87.6268,41.8967],[-87.6242,41.8967],[-87.6241,41.8979],[-87.6242,41.9004],[-87.6241,41.9008],[-87.6242,41.9009],[-87.6242,41.9016],[-87.6245,41.9024],[-87.6283,41.9024],[-87.6283,41.8999],[-87.6299,41.8999],[-87.6298,41.898],[-87.6305,41.898],[-87.6305,41.8966],[-87.6342,41.8966],[-87.6342,41.8974],[-87.6372,41.8974],[-87.6372,41.897],[-87.6387,41.897],[-87.6388,41.8989],[-87.6373,41.8989],[-87.6372,41.8982],[-87.6343,41.8982],[-87.6344,41.9013],[-87.6329,41.9013],[-87.633,41.9031],[-87.6314,41.9031],[-87.6314,41.9039],[-87.637,41.9038],[-87.6371,41.9057],[-87.6384,41.9057],[-87.6385,41.9076],[-87.6372,41.9076],[-87.6373,41.9098],[-87.6374,41.9102],[-87.6376,41.9103],[-87.6376,41.9111],[-87.6367,41.9111],[-87.6367,41.9117],[-87.6381,41.9117],[-87.638,41.9112],[-87.6386,41.9112],[-87.6385,41.9092],[-87.641,41.9092],[-87.6408,41.9051],[-87.6411,41.9049],[-87.6421,41.9056],[-87.6421,41.9058],[-87.6422,41.9092],[-87.6434,41.9092],[-87.6434,41.9104],[-87.6441,41.9104],[-87.6443,41.9102],[-87.6455,41.9102],[-87.6454,41.911],[-87.6458,41.911],[-87.6459,41.9114],[-87.6471,41.9114],[-87.6471,41.9109],[-87.6462,41.9109],[-87.6462,41.9102],[-87.647,41.9101],[-87.6477,41.9096],[-87.6483,41.91],[-87.6482,41.9086],[-87.651,41.9085],[-87.6511,41.9109],[-87.6541,41.9108],[-87.6555,41.9125],[-87.6544,41.9131],[-87.6578,41.9162],[-87.6591,41.9171],[-87.6601,41.9171],[-87.6603,41.9173],[-87.663,41.9193],[-87.6631,41.9195],[-87.6632,41.9207],[-87.6681,41.9243],[-87.6681,41.9252],[-87.6572,41.9253],[-87.6572,41.9235],[-87.6584,41.9235],[-87.6583,41.9217],[-87.6571,41.9217],[-87.6571,41.9199],[-87.6583,41.9198],[-87.6582,41.9173],[-87.6583,41.9172],[-87.6534,41.9137],[-87.6532,41.9137],[-87.6532,41.9136],[-87.6495,41.9109],[-87.6483,41.9109],[-87.6484,41.9138],[-87.6444,41.9139],[-87.6444,41.911],[-87.6398,41.9111],[-87.6399,41.9129],[-87.6384,41.9128],[-87.6331,41.9129],[-87.6328,41.9131],[-87.6317,41.9112],[-87.6289,41.9112],[-87.6287,41.9049],[-87.6258,41.9049],[-87.6258,41.904],[-87.6252,41.904]]]]}},{"type":"Feature","properties":{"ward":3,"label":[-87.6208,41.8121]},"geometry":{"type":"MultiPolygon","coordinates":[[[[-87.6199,41.8658],[-87.6188,41.8626],[-87.6185,41.8621],[-87.6175,41.8596],[-87.6167,41.858],[-87.6189,41.8579],[-87.6178,41.8556],[-87.6171,41.853],[-87.6207,41.853],[-87.6207,41.8528],[-87.6223,41.8528],[-87.6222,41.8484],[-87.6228,41.8485],[-87.6237,41.8484],[-87.6237,41.8475],[-87.6236,41.8474],[-87.6234,41.8461],[-87.6232,41.8392],[-87.6233,41.8383],[-87.6219,41.8384],[-87.6219,41.8365],[-87.6194,41.8366],[-87.6194,41.8347],[-87.6206,41.8347],[-87.6206,41.8311],[-87.6184,41.8311],[-87.6183,41.8275],[-87.6171,41.8275],[-87.617,41.8238],[-87.6126,41.8239],[-87.6134,41.8206],[-87.6141,41.8167],[-87.6129,41.8167],[-87.6128,41.8149],[-87.6083,41.815],[-87.6083,41.8131],[-87.6099,41.8131],[-87.6099,41.8113],[-87.6115,41.8113],[-87.6114,41.8076],[-87.6126,41.8076],[-87.6126,41.8058],[-87.6156,41.8058],[-87.6155,41.8039],[-87.6165,41.8039],[-87.6164,41.8032],[-87.6161,41.8021],[-87.6161,41.8009],[-87.616,41.7939],[-87.6208,41.7938],[-87.6208,41.7947],[-87.6268,41.7946],[-87.6268,41.7964],[-87.6273,41.7965],[-87.6278,41.7965],[-87.628,41.8019],[-87.6288,41.8019],[-87.629,41.806],[-87.6289,41.8092],[-87.6291,41.8165],[-87.6336,41.8164],[-87.6336,41.8177],[-87.6354,41.8177],[-87.6354,41.8175],[-87.6352,41.8173],[-87.6352,41.8164],[-87.6347,41.8164],[-87.6346,41.8125],[-87.6335,41.8125],[-87.6334,41.8117],[-87.632,41.8118],[-87.632,41.8103],[-87.6322,41.8099],[-87.6334,41.8098],[-87.6334,41.8095],[-87.6348,41.8094],[-87.6348,41.8091],[-87.6358,41.809],[-87.6359,41.8117],[-87.6359,41.8139],[-87.6362,41.8218],[-87.6364,41.8236],[-87.6338,41.8236],[-87.6338,41.8273],[-87.6326,41.8273],[-87.6327,41.829],[-87.6315,41.8291],[-87.6315,41.8309],[-87.6296,41.831],[-87.63,41.8443],[-87.6299,41.8467],[-87.63,41.8472],[-87.6301,41.8493],[-87.6301,41.8521],[-87.6303,41.8529],[-87.6301,41.8529],[-87.6303,41.8601],[-87.6349,41.8601],[-87.6351,41.8673],[-87.6353,41.8672],[-87.6353,41.8674],[-87.6327,41.8674],[-87.6327,41.8673],[-87.6275,41.8673],[-87.6275,41.8657],[-87.6238,41.8658],[-87.6226,41.8658],[-87.6227,41.8676],[-87.6204,41.8676],[-87.6204,41.8672],[-87.6199,41.8658]]]]}},{"type":"Feature","properties":{"ward":4,"label":[-87.6051,41.822]},"geometry":{"type":"MultiPolygon","coordinates":[[[[-87.6243,41.877],[-87.6242,41.8732],[-87.6162,41.8733],[-87.6162,41.872],[-87.6163,41.872],[-87.6162,41.8717],[-87.6162,41.8689],[-87.6157,41.8687],[-87.6154,41.8683],[-87.6147,41.8683],[-87.6143,41.8685],[-87.6138,41.8685],[-87.6132,41.8685],[-87.6128,41.8683],[-87.6125,41.868],[-87.6123,41.8676],[-87.6124,41.8673],[-87.6127,41.867],[-87.6127,41.8668],[-87.6077,41.8669],[-87.6073,41.8671],[-87.6068,41.8672],[-87.6061,41.8671],[-87.6058,41.8669],[-87.6057,41.8667],[-87.6056,41.8664],[-87.6057,41.8661],[-87.6058,41.8659],[-87.6061,41.8657],[-87.606,41.8648],[-87.6063,41.8648],[-87.6063,41.865],[-87.6066,41.8652],[-87.6069,41.8652],[-87.6074,41.8648],[-87.6075,41.8646],[-87.6076,41.8643],[-87.6075,41.8638],[-87.607,41.8624],[-87.6068,41.8623],[-87.6067,41.8622],[-87.6065,41.8622],[-87.6064,41.8621],[-87.6061,41.8621],[-87.606,41.862],[-87.606,41.8601],[-87.6068,41.8601],[-87.6071,41.86],[-87.6066,41.8534],[-87.6065,41.8534],[-87.6065,41.8534],[-87.609,41.8532],[-87.6096,41.8534],[-87.6099,41.8538],[-87.6099,41.854],[-87.6093,41.8568],[-87.6094,41.857],[-87.6098,41.8574],[-87.6099,41.8577],[-87.61,41.8581],[-87.6099,41.8586],[-87.61,41.8589],[-87.6105,41.8593],[-87.6104,41.8599],[-87.6105,41.8601],[-87.6107,41.8602],[-87.6107,41.8607],[-87.6105,41.8607],[-87.6104,41.8608],[-87.6103,41.8608],[-87.6104,41.8614],[-87.6103,41.8614],[-87.6099,41.8621],[-87.6098,41.8625],[-87.6097,41.8634],[-87.6096,41.8634],[-87.6097,41.8641],[-87.61,41.8646],[-87.6104,41.8653],[-87.6104,41.8653],[-87.6105,41.8659],[-87.6127,41.8658],[-87.6127,41.8653],[-87.6127,41.8653],[-87.6128,41.8651],[-87.6133,41.864],[-87.6134,41.8633],[-87.6134,41.8627],[-87.613,41.8618],[-87.6126,41.8614],[-87.6126,41.8614],[-87.6125,41.8608],[-87.6125,41.8608],[-87.6124,41.8607],[-87.6122,41.8606],[-87.6122,41.8605],[-87.6124,41.8605],[-87.6124,41.8604],[-87.6122,41.8603],[-87.6122,41.8602],[-87.6123,41.8602],[-87.6124,41.86],[-87.6122,41.8593],[-87.6122,41.8586],[-87.6123,41.8585],[-87.6125,41.8585],[-87.6128,41.8582],[-87.613,41.8576],[-87.613,41.857],[-87.6129,41.8564],[-87.6126,41.856],[-87.6123,41.8557],[-87.6114,41.8552],[-87.6112,41.8549],[-87.611,41.8545],[-87.6109,41.8537],[-87.6107,41.8531],[-87.6104,41.8525],[-87.6094,41.8513],[-87.6092,41.851],[-87.6092,41.8504],[-87.6095,41.8487],[-87.6095,41.8481],[-87.6093,41.8476],[-87.6085,41.8466],[-87.6084,41.8461],[-87.6085,41.8456],[-87.6091,41.8448],[-87.6092,41.8442],[-87.6089,41.844],[-87.6088,41.8434],[-87.608,41.8423],[-87.608,41.8414],[-87.6078,41.841],[-87.6075,41.8406],[-87.607,41.8407],[-87.6067,41.8406],[-87.6067,41.8405],[-87.607,41.8406],[-87.6075,41.8405],[-87.6072,41.8397],[-87.6071,41.8395],[-87.6065,41.8391],[-87.6062,41.8386],[-87.6047,41.839],[-87.6043,41.8396],[-87.6043,41.8398],[-87.6042,41.8398],[-87.6042,41.8396],[-87.6047,41.8389],[-87.6061,41.8386],[-87.6061,41.8373],[-87.6058,41.8364],[-87.6053,41.8357],[-87.6046,41.835],[-87.6045,41.8348],[-87.6047,41.8346],[-87.605,41.8344],[-87.6049,41.8338],[-87.6046,41.8333],[-87.6044,41.8332],[-87.6039,41.833],[-87.6034,41.833],[-87.603,41.8327],[-87.6027,41.8323],[-87.6028,41.8318],[-87.6027,41.8314],[-87.6024,41.8307],[-87.6016,41.83],[-87.6,41.8279],[-87.5983,41.8268],[-87.5978,41.8263],[-87.5976,41.8261],[-87.5975,41.8256],[-87.5977,41.8246],[-87.5976,41.824],[-87.5973,41.8229],[-87.5972,41.8228],[-87.5973,41.8228],[-87.5973,41.8227],[-87.5973,41.8227],[-87.5973,41.8226],[-87.5971,41.8225],[-87.597,41.8222],[-87.5968,41.822],[-87.5961,41.8211],[-87.5957,41.8206],[-87.5957,41.8204],[-87.5956,41.8203],[-87.5951,41.8198],[-87.5946,41.8197],[-87.5943,41.8194],[-87.5937,41.819],[-87.5935,41.8188],[-87.593,41.8186],[-87.5926,41.8183],[-87.5922,41.8177],[-87.5922,41.8166],[-87.592,41.8163],[-87.5917,41.816],[-87.5915,41.816],[-87.5912,41.8154],[-87.5909,41.815],[-87.5906,41.8147],[-87.5905,41.8146],[-87.5903,41.8144],[-87.5905,41.8143],[-87.5903,41.8141],[-87.5901,41.8136],[-87.5897,41.8131],[-87.5891,41.8128],[-87.5888,41.8123],[-87.5883,41.812],[-87.5877,41.812],[-87.5874,41.8119],[-87.5873,41.8117],[-87.5872,41.8116],[-87.5872,41.8115],[-87.5871,41.8114],[-87.5889,41.8109],[-87.5902,41.8104],[-87.5901,41.8101],[-87.5902,41.8096],[-87.5886,41.8073],[-87.5882,41.807],[-87.5877,41.8068],[-87.5891,41.8064],[-87.5882,41.8044],[-87.5876,41.8025],[-87.5879,41.8025],[-87.5875,41.8011],[-87.5873,41.7996],[-87.5966,41.7995],[-87.5967,41.8024],[-87.6042,41.8023],[-87.6043,41.8041],[-87.6125,41.804],[-87.6126,41.8076],[-87.6114,41.8076],[-87.6115,41.8113],[-87.6099,41.8113],[-87.6099,41.8131],[-87.6083,41.8131],[-87.6083,41.815],[-87.6128,41.8149],[-87.6129,41.8167],[-87.6141,41.8167],[-87.6134,41.8206],[-87.6126,41.8239],[-87.617,41.8238],[-87.6171,41.8275],[-87.6183,41.8275],[-87.6184,41.8311],[-87.6206,41.8311],[-87.6206,41.8347],[-87.6194,41.8347],[-87.6194,41.8366],[-87.6219,41.8365],[-87.6219,41.8384],[-87.6233,41.8383],[-87.6232,41.8392],[-87.6234,41.8461],[-87.6236,41.8474],[-87.6237,41.8475],[-87.6237,41.8484],[-87.6228,41.8485],[-87.6222,41.8484],[-87.6223,41.8528],[-87.6207,41.8528],[-87.6207,41.853],[-87.6171,41.853],[-87.6178,41.8556],[-87.6189,41.8579],[-87.6167,41.858],[-87.6175,41.8596],[-87.6185,41.8621],[-87.619,41.8629],[-87.6204,41.8672],[-87.6204,41.8676],[-87.6304,41.8674],[-87.6307,41.8757],[-87.6297,41.8757],[-87.6297,41.8755],[-87.6287,41.8756],[-87.6287,41.8759],[-87.6287,41.8769],[-87.6307,41.8769],[-87.6308,41.8781],[-87.6261,41.8782],[-87.626,41.8762],[-87.6253,41.8762],[-87.6253,41.877],[-87.6243,41.877]]]]}},{"type":"Feature","properties":{"ward":5,"label":[-87.5877,41.7915]},"geometry":{"type":"MultiPolygon","coordinates":[[[[-87.5603,41.7664],[-87.5626,41.7663],[-87.5665,41.7663],[-87.5665,41.7644],[-87.5677,41.7644],[-87.5677,41.7626],[-87.5776,41.7625],[-87.5793,41.7625],[-87.5794,41.7661],[-87.5853,41.7661],[-87.5853,41.7642],[-87.5859,41.7642],[-87.5859,41.7651],[-87.5863,41.7651],[-87.5863,41.7661],[-87.5938,41.766],[-87.594,41.7651],[-87.5934,41.7651],[-87.5933,41.7605],[-87.5951,41.7606],[-87.5955,41.7587],[-87.598,41.7587],[-87.5982,41.7587],[-87.6082,41.7658],[-87.6056,41.7659],[-87.6058,41.7731],[-87.5922,41.7733],[-87.5918,41.7751],[-87.5921,41.7751],[-87.5914,41.778],[-87.5915,41.7788],[-87.591,41.7788],[-87.5899,41.7832],[-87.5901,41.7832],[-87.5903,41.7834],[-87.5905,41.7833],[-87.5914,41.7833],[-87.5914,41.7842],[-87.5947,41.7842],[-87.5947,41.7861],[-87.5963,41.786],[-87.5963,41.7842],[-87.6028,41.7841],[-87.6028,41.7853],[-87.6044,41.7853],[-87.6044,41.7859],[-87.606,41.7859],[-87.6062,41.795],[-87.6038,41.795],[-87.6038,41.7955],[-87.6037,41.7953],[-87.6027,41.7953],[-87.6029,41.8023],[-87.5967,41.8024],[-87.5966,41.7995],[-87.5873,41.7996],[-87.5875,41.8011],[-87.5879,41.8025],[-87.5876,41.8025],[-87.5882,41.8044],[-87.5891,41.8064],[-87.5877,41.8068],[-87.5882,41.807],[-87.5886,41.8073],[-87.5902,41.8096],[-87.5901,41.8101],[-87.5902,41.8104],[-87.5889,41.8109],[-87.5871,41.8114],[-87.5869,41.8112],[-87.587,41.8111],[-87.587,41.8106],[-87.5869,41.8101],[-87.5865,41.8094],[-87.5865,41.8093],[-87.5863,41.8092],[-87.5863,41.8091],[-87.5862,41.8091],[-87.5861,41.8088],[-87.5861,41.8087],[-87.5857,41.8081],[-87.5857,41.8079],[-87.5852,41.8072],[-87.5845,41.8066],[-87.5829,41.8056],[-87.5817,41.8047],[-87.5813,41.8043],[-87.581,41.8042],[-87.5807,41.8042],[-87.5802,41.804],[-87.58,41.8038],[-87.58,41.8035],[-87.5804,41.8029],[-87.5803,41.8029],[-87.5804,41.8021],[-87.5805,41.8011],[-87.5803,41.7996],[-87.5798,41.7984],[-87.5799,41.7984],[-87.5793,41.7978],[-87.5782,41.797],[-87.5778,41.7969],[-87.5773,41.7969],[-87.5765,41.797],[-87.5761,41.797],[-87.5756,41.7969],[-87.5753,41.7966],[-87.5752,41.7965],[-87.5752,41.7962],[-87.5754,41.7954],[-87.5758,41.7953],[-87.5762,41.7951],[-87.5767,41.795],[-87.5769,41.7951],[-87.5778,41.7949],[-87.5783,41.7947],[-87.579,41.7942],[-87.5793,41.7936],[-87.5793,41.7926],[-87.5796,41.792],[-87.5793,41.7914],[-87.5787,41.7907],[-87.5784,41.7901],[-87.5783,41.7899],[-87.5775,41.7893],[-87.5763,41.7886],[-87.5763,41.7885],[-87.5767,41.7885],[-87.5767,41.7884],[-87.5777,41.7884],[-87.5778,41.7883],[-87.5777,41.7882],[-87.5776,41.7882],[-87.5771,41.7882],[-87.5772,41.7881],[-87.5773,41.7881],[-87.5773,41.7876],[-87.5773,41.7869],[-87.5772,41.7865],[-87.5768,41.7852],[-87.5761,41.7837],[-87.5742,41.7826],[-87.5725,41.7819],[-87.5706,41.7814],[-87.5697,41.7813],[-87.5684,41.7816],[-87.5676,41.7846],[-87.5675,41.7846],[-87.5683,41.7815],[-87.5713,41.7808],[-87.5731,41.7803],[-87.5729,41.7799],[-87.573,41.7798],[-87.5741,41.7795],[-87.5744,41.7794],[-87.5747,41.7791],[-87.5751,41.7786],[-87.5753,41.7779],[-87.5753,41.7774],[-87.5752,41.777],[-87.5746,41.7762],[-87.5747,41.776],[-87.5751,41.7759],[-87.575,41.7758],[-87.5748,41.7758],[-87.5742,41.7755],[-87.5735,41.7755],[-87.5734,41.7755],[-87.5734,41.7754],[-87.5733,41.7754],[-87.5733,41.7755],[-87.5732,41.7756],[-87.5727,41.7756],[-87.5721,41.7758],[-87.5719,41.7759],[-87.5718,41.7764],[-87.5718,41.7767],[-87.5723,41.7773],[-87.5725,41.7774],[-87.5726,41.7773],[-87.5729,41.7776],[-87.5728,41.7777],[-87.5732,41.778],[-87.5734,41.7783],[-87.5733,41.7784],[-87.5734,41.7786],[-87.5734,41.7789],[-87.5732,41.7792],[-87.5727,41.7793],[-87.5722,41.7792],[-87.5721,41.7791],[-87.5721,41.7789],[-87.5718,41.7786],[-87.5716,41.7785],[-87.5699,41.777],[-87.5697,41.777],[-87.5694,41.7768],[-87.5688,41.7764],[-87.5681,41.7756],[-87.5668,41.774],[-87.5664,41.7737],[-87.5663,41.7736],[-87.5663,41.7735],[-87.5659,41.7731],[-87.565,41.7725],[-87.5641,41.7721],[-87.5636,41.7721],[-87.5636,41.772],[-87.5636,41.7718],[-87.5634,41.7712],[-87.5635,41.7711],[-87.5633,41.7704],[-87.5625,41.7694],[-87.5623,41.769],[-87.5615,41.7686],[-87.5609,41.7684],[-87.5605,41.7684],[-87.5603,41.7684],[-87.5602,41.7686],[-87.5598,41.769],[-87.5595,41.7692],[-87.5594,41.7686],[-87.5594,41.7681],[-87.5595,41.7679],[-87.5594,41.7677],[-87.5594,41.7668],[-87.5595,41.7667],[-87.5596,41.7666],[-87.5601,41.7665],[-87.5603,41.7664]]]]}},{"type":"Feature","properties":{"ward":6,"label":[-87.6166,41.7583]},"geometry":{"type":"MultiPolygon","coordinates":[[[[-87.6179,41.7729],[-87.6058,41.7731],[-87.6056,41.7659],[-87.6082,41.7658],[-87.5982,41.7587],[-87.6054,41.7586],[-87.6048,41.7366],[-87.6145,41.7365],[-87.6144,41.731],[-87.6095,41.7311],[-87.6095,41.7307],[-87.6095,41.7293],[-87.6143,41.7292],[-87.6141,41.7219],[-87.6237,41.7217],[-87.6239,41.7293],[-87.624,41.73],[-87.624,41.7317],[-87.6243,41.7418],[-87.6251,41.7417],[-87.6256,41.7418],[-87.629,41.7418],[-87.6291,41.7419],[-87.6291,41.7436],[-87.6342,41.7435],[-87.6359,41.7442],[-87.6365,41.7435],[-87.6438,41.7434],[-87.644,41.7488],[-87.6428,41.7488],[-87.6428,41.7507],[-87.6319,41.7508],[-87.6318,41.7472],[-87.6257,41.7473],[-87.6258,41.7509],[-87.627,41.7509],[-87.6271,41.7546],[-87.6286,41.7545],[-87.6286,41.755],[-87.6287,41.755],[-87.6288,41.7559],[-87.6289,41.7559],[-87.629,41.7563],[-87.6394,41.7562],[-87.6392,41.758],[-87.6393,41.7598],[-87.6443,41.7597],[-87.6446,41.7707],[-87.6432,41.7707],[-87.6433,41.7725],[-87.6426,41.7725],[-87.6427,41.7761],[-87.6425,41.7761],[-87.6396,41.7762],[-87.6396,41.778],[-87.6311,41.7781],[-87.6301,41.7766],[-87.6301,41.777],[-87.6286,41.7758],[-87.6281,41.7755],[-87.6276,41.7753],[-87.6267,41.775],[-87.626,41.7749],[-87.6224,41.775],[-87.6212,41.7748],[-87.6205,41.7746],[-87.6197,41.7743],[-87.6179,41.7729]]]]}},{"type":"Feature","properties":{"ward":7,"label":[-87.5589,41.7521]},"geometry":{"type":"MultiPolygon","coordinates":[[[[-87.5439,41.7603],[-87.5433,41.7597],[-87.543,41.7596],[-87.5426,41.7591],[-87.5425,41.759],[-87.5426,41.7587],[-87.5416,41.7578],[-87.5411,41.7578],[-87.5406,41.7573],[-87.544,41.7552],[-87.5439,41.755],[-87.5442,41.7548],[-87.5442,41.7546],[-87.5444,41.7541],[-87.5438,41.7527],[-87.5435,41.7522],[-87.543,41.7519],[-87.5411,41.7519],[-87.5404,41.7518],[-87.5374,41.7507],[-87.5368,41.7504],[-87.536,41.7502],[-87.5355,41.7499],[-87.5321,41.7486],[-87.5311,41.7481],[-87.5309,41.748],[-87.5308,41.7475],[-87.5304,41.7447],[-87.5425,41.7448],[-87.5503,41.7447],[-87.5503,41.7433],[-87.5505,41.7435],[-87.5517,41.7435],[-87.5515,41.7425],[-87.5515,41.7421],[-87.5527,41.7429],[-87.5552,41.7428],[-87.5551,41.741],[-87.5557,41.741],[-87.5557,41.7378],[-87.5551,41.7378],[-87.5551,41.7373],[-87.5556,41.7373],[-87.5554,41.73],[-87.5526,41.7301],[-87.5526,41.7277],[-87.5539,41.7264],[-87.5538,41.7227],[-87.5597,41.7227],[-87.5591,41.7219],[-87.5589,41.7214],[-87.5588,41.7133],[-87.5597,41.7134],[-87.5596,41.7064],[-87.5627,41.7064],[-87.5627,41.7046],[-87.5655,41.7046],[-87.5657,41.7046],[-87.5657,41.7045],[-87.5657,41.7018],[-87.5654,41.7013],[-87.5675,41.7011],[-87.5737,41.708],[-87.586,41.7078],[-87.5855,41.7086],[-87.5851,41.7095],[-87.585,41.7102],[-87.5849,41.7111],[-87.5852,41.7213],[-87.5851,41.7219],[-87.5851,41.7223],[-87.5754,41.7225],[-87.5755,41.7298],[-87.5725,41.7298],[-87.5726,41.7335],[-87.5659,41.7335],[-87.566,41.735],[-87.5659,41.7355],[-87.566,41.7372],[-87.5657,41.7372],[-87.566,41.7374],[-87.5661,41.7426],[-87.5722,41.7426],[-87.5722,41.7425],[-87.5726,41.7422],[-87.5756,41.7443],[-87.5686,41.7444],[-87.5686,41.7499],[-87.5711,41.7499],[-87.5711,41.7535],[-87.5724,41.7535],[-87.5725,41.7589],[-87.5785,41.7589],[-87.5786,41.7607],[-87.5884,41.7606],[-87.5885,41.7642],[-87.5853,41.7642],[-87.5853,41.7661],[-87.5794,41.7661],[-87.5793,41.7625],[-87.5677,41.7626],[-87.5677,41.7644],[-87.5665,41.7644],[-87.5665,41.7663],[-87.5626,41.7663],[-87.5603,41.7664],[-87.5606,41.7661],[-87.5606,41.7658],[-87.5606,41.7656],[-87.5604,41.7653],[-87.5604,41.7653],[-87.5601,41.7651],[-87.5602,41.765],[-87.5601,41.7649],[-87.56,41.7649],[-87.5598,41.765],[-87.5596,41.7647],[-87.5595,41.7645],[-87.5597,41.7644],[-87.5594,41.7641],[-87.5593,41.764],[-87.559,41.7638],[-87.5585,41.764],[-87.5576,41.7631],[-87.5577,41.763],[-87.5576,41.7628],[-87.5569,41.7624],[-87.5566,41.7622],[-87.5557,41.7616],[-87.5555,41.7616],[-87.5548,41.7618],[-87.5544,41.7611],[-87.5543,41.761],[-87.5541,41.7608],[-87.5523,41.76],[-87.5505,41.7593],[-87.5487,41.7587],[-87.548,41.7587],[-87.5471,41.7587],[-87.5464,41.759],[-87.5455,41.7594],[-87.5443,41.7602],[-87.5442,41.7602],[-87.544,41.7601],[-87.5439,41.7601],[-87.5444,41.7606],[-87.5465,41.7606],[-87.5444,41.7607],[-87.5439,41.7603]]]]}},{"type":"Feature","properties":{"ward":8,"label":[-87.5893,41.7372]},"geometry":{"type":"MultiPolygon","coordinates":[[[[-87.5859,41.7642],[-87.5885,41.7642],[-87.5884,41.7606],[-87.5786,41.7607],[-87.5785,41.7589],[-87.5725,41.7589],[-87.5724,41.7535],[-87.5711,41.7535],[-87.5711,41.7499],[-87.5686,41.7499],[-87.5686,41.7444],[-87.5756,41.7443],[-87.5726,41.7422],[-87.5722,41.7425],[-87.5722,41.7426],[-87.5661,41.7426],[-87.566,41.7374],[-87.5657,41.7372],[-87.566,41.7372],[-87.5659,41.7355],[-87.566,41.735],[-87.5659,41.7335],[-87.5726,41.7335],[-87.5725,41.7298],[-87.5755,41.7298],[-87.5754,41.7225],[-87.5851,41.7223],[-87.5851,41.7219],[-87.5852,41.7213],[-87.5849,41.7111],[-87.585,41.7102],[-87.5851,41.7095],[-87.5855,41.7086],[-87.586,41.7078],[-87.6065,41.7074],[-87.6051,41.7136],[-87.614,41.7134],[-87.6143,41.7292],[-87.6095,41.7293],[-87.6095,41.7307],[-87.6095,41.7311],[-87.6144,41.731],[-87.6145,41.7365],[-87.6048,41.7366],[-87.6054,41.7586],[-87.5955,41.7587],[-87.5951,41.7606],[-87.5933,41.7605],[-87.5934,41.7651],[-87.594,41.7651],[-87.5938,41.766],[-87.5863,41.7661],[-87.5863,41.7651],[-87.5859,41.7651],[-87.5859,41.7642]]]]}},{"type":"Feature","properties":{"ward":9,"label":[-87.6137,41.6946]},"geometry":{"type":"MultiPolygon","coordinates":[[[[-87.6141,41.7219],[-87.614,41.7134],[-87.6051,41.7136],[-87.6065,41.7074],[-87.5922,41.7077],[-87.5919,41.7065],[-87.5918,41.7054],[-87.5919,41.7041],[-87.5923,41.703],[-87.5927,41.7021],[-87.5946,41.6989],[-87.5948,41.6988],[-87.6007,41.688],[-87.6014,41.6867],[-87.6017,41.6858],[-87.6019,41.6851],[-87.6019,41.6842],[-87.6017,41.6767],[-87.6015,41.6757],[-87.6013,41.6749],[-87.6009,41.6741],[-87.6004,41.6733],[-87.5893,41.6604],[-87.5907,41.6604],[-87.5926,41.6603],[-87.5978,41.6594],[-87.5996,41.6593],[-87.6039,41.6591],[-87.6076,41.6591],[-87.6077,41.6586],[-87.6076,41.6574],[-87.6096,41.6574],[-87.6096,41.6569],[-87.6095,41.6563],[-87.6095,41.6544],[-87.6095,41.6543],[-87.6097,41.6541],[-87.6098,41.654],[-87.6111,41.6553],[-87.6116,41.6553],[-87.6114,41.6532],[-87.6114,41.6519],[-87.6172,41.6518],[-87.6172,41.6503],[-87.618,41.6504],[-87.6203,41.6509],[-87.6194,41.6527],[-87.6187,41.6546],[-87.6177,41.6591],[-87.6197,41.6591],[-87.6195,41.6595],[-87.6194,41.6601],[-87.6195,41.6608],[-87.6199,41.6611],[-87.6203,41.6614],[-87.622,41.6621],[-87.622,41.6624],[-87.6233,41.6624],[-87.624,41.6622],[-87.6244,41.6623],[-87.6248,41.6621],[-87.6259,41.6618],[-87.6263,41.6617],[-87.6264,41.6615],[-87.6269,41.6612],[-87.6278,41.6606],[-87.6291,41.6593],[-87.6297,41.659],[-87.6308,41.6583],[-87.6308,41.6581],[-87.6308,41.658],[-87.6311,41.6578],[-87.6313,41.6578],[-87.6314,41.658],[-87.6316,41.6579],[-87.6323,41.6579],[-87.6323,41.6578],[-87.6326,41.6577],[-87.6326,41.6576],[-87.633,41.6575],[-87.6356,41.6573],[-87.6363,41.6574],[-87.6386,41.6577],[-87.641,41.6578],[-87.6411,41.6581],[-87.6414,41.6581],[-87.6414,41.6578],[-87.644,41.6577],[-87.6459,41.6578],[-87.647,41.6576],[-87.6472,41.6632],[-87.6414,41.6632],[-87.6417,41.6705],[-87.6321,41.6706],[-87.6323,41.6779],[-87.6299,41.6779],[-87.6304,41.6971],[-87.628,41.6971],[-87.6283,41.707],[-87.6283,41.7071],[-87.6392,41.707],[-87.6394,41.7142],[-87.637,41.7143],[-87.637,41.7152],[-87.6394,41.7152],[-87.6398,41.7288],[-87.6386,41.7288],[-87.6386,41.73],[-87.624,41.7301],[-87.6239,41.7293],[-87.6237,41.7217],[-87.6141,41.7219]]]]}},{"type":"Feature","properties":{"ward":10,"label":[-87.5543,41.674]},"geometry":{"type":"MultiPolygon","coordinates":[[[[-87.5302,41.7431],[-87.53,41.7417],[-87.5299,41.7415],[-87.5298,41.7414],[-87.5245,41.7415],[-87.5245,41.7414],[-87.5299,41.7413],[-87.5307,41.7411],[-87.5399,41.741],[-87.5399,41.7407],[-87.5398,41.7405],[-87.5299,41.7406],[-87.5298,41.7398],[-87.5298,41.7398],[-87.5297,41.7396],[-87.5292,41.736],[-87.5293,41.7359],[-87.5291,41.735],[-87.5291,41.7343],[-87.529,41.7338],[-87.529,41.7338],[-87.5295,41.7324],[-87.5293,41.7323],[-87.5291,41.7321],[-87.5252,41.7315],[-87.5249,41.7314],[-87.5247,41.7312],[-87.5247,41.7311],[-87.5246,41.7232],[-87.5245,41.7232],[-87.5245,41.7219],[-87.5245,41.7218],[-87.5247,41.7218],[-87.525,41.7215],[-87.5247,41.7213],[-87.5248,41.7212],[-87.5251,41.7214],[-87.5254,41.7209],[-87.5251,41.7208],[-87.5251,41.7207],[-87.5255,41.7208],[-87.5255,41.7207],[-87.5256,41.7194],[-87.5255,41.719],[-87.5253,41.7185],[-87.5249,41.7181],[-87.5245,41.718],[-87.5245,41.7174],[-87.5258,41.7173],[-87.5264,41.7171],[-87.5265,41.7173],[-87.5266,41.7172],[-87.5265,41.7171],[-87.5268,41.717],[-87.5268,41.7169],[-87.527,41.7169],[-87.5273,41.7168],[-87.5282,41.7162],[-87.5286,41.7157],[-87.5287,41.7154],[-87.5286,41.7149],[-87.5281,41.7142],[-87.5277,41.7134],[-87.5274,41.7131],[-87.5264,41.7123],[-87.5284,41.7108],[-87.5272,41.71],[-87.5266,41.7098],[-87.5262,41.7098],[-87.5259,41.7101],[-87.526,41.7103],[-87.526,41.7103],[-87.5257,41.7104],[-87.5255,41.7101],[-87.525,41.7099],[-87.5246,41.7096],[-87.5242,41.7094],[-87.5241,41.7093],[-87.5245,41.7093],[-87.5248,41.7093],[-87.5249,41.7094],[-87.5251,41.7097],[-87.5253,41.7097],[-87.5255,41.7099],[-87.5262,41.7095],[-87.5258,41.7092],[-87.5253,41.7095],[-87.5253,41.7095],[-87.5253,41.7095],[-87.5251,41.7093],[-87.5252,41.7094],[-87.5257,41.7091],[-87.5254,41.7088],[-87.5249,41.7092],[-87.5248,41.7091],[-87.525,41.7089],[-87.5249,41.7087],[-87.5245,41.7085],[-87.5245,41.7021],[-87.5246,41.6953],[-87.5247,41.6882],[-87.5252,41.6445],[-87.5498,41.6446],[-87.5773,41.6447],[-87.5868,41.6447],[-87.587,41.6449],[-87.5869,41.645],[-87.5872,41.6453],[-87.5882,41.6463],[-87.5888,41.6469],[-87.5889,41.6467],[-87.5892,41.647],[-87.5893,41.6472],[-87.5901,41.6478],[-87.5905,41.6483],[-87.5912,41.6486],[-87.5923,41.6489],[-87.5937,41.6489],[-87.5942,41.6489],[-87.5967,41.6483],[-87.5976,41.6481],[-87.5978,41.648],[-87.5979,41.648],[-87.5978,41.6446],[-87.6172,41.6446],[-87.6172,41.6518],[-87.6114,41.6519],[-87.6114,41.6532],[-87.6116,41.6553],[-87.6111,41.6553],[-87.6098,41.654],[-87.6097,41.6541],[-87.6095,41.6543],[-87.6095,41.6544],[-87.6095,41.6563],[-87.6096,41.6569],[-87.6096,41.6574],[-87.6076,41.6574],[-87.6077,41.6586],[-87.6076,41.6591],[-87.6039,41.6591],[-87.5996,41.6593],[-87.5978,41.6594],[-87.5926,41.6603],[-87.5907,41.6604],[-87.5893,41.6604],[-87.6004,41.6733],[-87.6009,41.6741],[-87.6013,41.6749],[-87.6015,41.6757],[-87.6017,41.6767],[-87.6019,41.6842],[-87.6019,41.6851],[-87.6017,41.6858],[-87.6014,41.6867],[-87.6007,41.688],[-87.5948,41.6988],[-87.5946,41.6989],[-87.5927,41.7021],[-87.5923,41.703],[-87.5919,41.7041],[-87.5918,41.7054],[-87.5919,41.7065],[-87.5922,41.7077],[-87.5737,41.708],[-87.5675,41.7011],[-87.5654,41.7013],[-87.5657,41.7018],[-87.5658,41.7042],[-87.5657,41.7046],[-87.5657,41.7046],[-87.5655,41.7046],[-87.5627,41.7046],[-87.5627,41.7064],[-87.5596,41.7064],[-87.5597,41.7134],[-87.5588,41.7133],[-87.5589,41.7214],[-87.5591,41.7219],[-87.5597,41.7227],[-87.5538,41.7227],[-87.5539,41.7264],[-87.5526,41.7277],[-87.5526,41.7301],[-87.5554,41.73],[-87.5556,41.7373],[-87.5551,41.7373],[-87.5551,41.7378],[-87.5557,41.7378],[-87.5557,41.741],[-87.5551,41.741],[-87.5552,41.7428],[-87.5527,41.7429],[-87.5515,41.7421],[-87.5515,41.7425],[-87.5517,41.7435],[-87.5505,41.7435],[-87.5503,41.7433],[-87.5503,41.7447],[-87.5435,41.7448],[-87.5304,41.7447],[-87.5302,41.7431]]]]}},{"type":"Feature","properties":{"ward":11,"label":[-87.6446,41.8356]},"geometry":{"type":"MultiPolygon","coordinates":[[[[-87.636,41.8163],[-87.6375,41.8163],[-87.6375,41.815],[-87.6457,41.8148],[-87.6456,41.8125],[-87.6586,41.8124],[-87.6604,41.8123],[-87.6651,41.8122],[-87.6652,41.8202],[-87.6655,41.8232],[-87.669,41.8232],[-87.669,41.825],[-87.6678,41.825],[-87.6678,41.8245],[-87.666,41.8246],[-87.666,41.825],[-87.6655,41.825],[-87.6655,41.8259],[-87.6661,41.8259],[-87.6661,41.8268],[-87.6673,41.8268],[-87.6673,41.8287],[-87.6679,41.8286],[-87.668,41.8305],[-87.6753,41.8304],[-87.6753,41.8318],[-87.6681,41.8362],[-87.6681,41.8355],[-87.6664,41.8356],[-87.6663,41.8347],[-87.6657,41.8348],[-87.6657,41.8342],[-87.6644,41.8342],[-87.6643,41.8324],[-87.6606,41.8324],[-87.6603,41.8322],[-87.6595,41.8312],[-87.6594,41.831],[-87.6593,41.8306],[-87.6574,41.8306],[-87.6574,41.8309],[-87.6574,41.8312],[-87.6587,41.8326],[-87.6604,41.8344],[-87.6613,41.8349],[-87.6631,41.8368],[-87.6634,41.8378],[-87.6643,41.839],[-87.6645,41.8396],[-87.6645,41.8407],[-87.665,41.8416],[-87.6643,41.8428],[-87.6638,41.8443],[-87.6635,41.8445],[-87.6616,41.8453],[-87.6604,41.846],[-87.6589,41.8472],[-87.6576,41.848],[-87.6567,41.8483],[-87.6563,41.8484],[-87.6531,41.8479],[-87.651,41.8483],[-87.6496,41.8484],[-87.6486,41.8486],[-87.6468,41.8492],[-87.6459,41.8494],[-87.644,41.8495],[-87.6433,41.8497],[-87.6426,41.85],[-87.6422,41.8505],[-87.6411,41.8518],[-87.6394,41.8543],[-87.639,41.8546],[-87.6387,41.8547],[-87.6389,41.8556],[-87.639,41.86],[-87.6339,41.8601],[-87.6303,41.8601],[-87.6301,41.8529],[-87.6303,41.8529],[-87.6301,41.8521],[-87.6301,41.8493],[-87.63,41.8472],[-87.6299,41.8467],[-87.63,41.8443],[-87.6296,41.831],[-87.6315,41.8309],[-87.6315,41.8291],[-87.6327,41.829],[-87.6326,41.8273],[-87.6338,41.8273],[-87.6338,41.8236],[-87.6364,41.8236],[-87.6362,41.8218],[-87.636,41.8163]]]]}},{"type":"Feature","properties":{"ward":12,"label":[-87.6976,41.8211]},"geometry":{"type":"MultiPolygon","coordinates":[[[[-87.6659,41.8449],[-87.6654,41.8449],[-87.6651,41.8448],[-87.6639,41.844],[-87.6643,41.8428],[-87.665,41.8416],[-87.6645,41.8407],[-87.6645,41.8396],[-87.6643,41.839],[-87.6634,41.8378],[-87.6632,41.837],[-87.6625,41.8361],[-87.662,41.8357],[-87.6617,41.8353],[-87.6613,41.8349],[-87.6604,41.8344],[-87.6587,41.8326],[-87.6574,41.8312],[-87.6574,41.8309],[-87.6574,41.8306],[-87.6593,41.8306],[-87.6594,41.831],[-87.6595,41.8312],[-87.6603,41.8322],[-87.6606,41.8324],[-87.6643,41.8324],[-87.6644,41.8342],[-87.6657,41.8342],[-87.6657,41.8348],[-87.6663,41.8347],[-87.6664,41.8356],[-87.6681,41.8355],[-87.6681,41.8362],[-87.6753,41.8318],[-87.6753,41.8304],[-87.668,41.8305],[-87.6679,41.8286],[-87.6673,41.8287],[-87.6673,41.8268],[-87.6661,41.8268],[-87.6661,41.8259],[-87.6655,41.8259],[-87.6655,41.825],[-87.666,41.825],[-87.666,41.8246],[-87.6676,41.8245],[-87.6678,41.8245],[-87.6678,41.825],[-87.669,41.825],[-87.669,41.8232],[-87.6655,41.8232],[-87.6652,41.8202],[-87.6651,41.8159],[-87.6724,41.8158],[-87.6723,41.8104],[-87.675,41.8103],[-87.6749,41.8085],[-87.6771,41.8085],[-87.677,41.8048],[-87.679,41.8048],[-87.6795,41.8085],[-87.6839,41.8084],[-87.6841,41.8157],[-87.6871,41.8157],[-87.687,41.812],[-87.6894,41.812],[-87.6893,41.8084],[-87.7015,41.8082],[-87.7016,41.81],[-87.7039,41.8099],[-87.704,41.8099],[-87.704,41.8081],[-87.7139,41.808],[-87.7143,41.8215],[-87.7143,41.8257],[-87.7144,41.8273],[-87.7144,41.8281],[-87.7113,41.8291],[-87.71,41.8294],[-87.705,41.8311],[-87.7047,41.8312],[-87.7003,41.8327],[-87.7,41.8328],[-87.6998,41.8328],[-87.6952,41.8343],[-87.6949,41.8344],[-87.695,41.8351],[-87.6885,41.8372],[-87.6881,41.8373],[-87.6879,41.8376],[-87.6876,41.8376],[-87.6876,41.8403],[-87.6874,41.8436],[-87.6876,41.8448],[-87.6854,41.8448],[-87.6782,41.8476],[-87.678,41.8425],[-87.6766,41.8419],[-87.6755,41.8419],[-87.6755,41.8416],[-87.6749,41.8417],[-87.6729,41.8428],[-87.6699,41.844],[-87.6672,41.8449],[-87.6659,41.8449]]]]}},{"type":"Feature","properties":{"ward":13,"label":[-87.7356,41.7828]},"geometry":{"type":"MultiPolygon","coordinates":[[[[-87.7421,41.7711],[-87.7422,41.7748],[-87.747,41.7747],[-87.747,41.7747],[-87.7472,41.7748],[-87.7811,41.7741],[-87.8008,41.7738],[-87.8008,41.7742],[-87.8009,41.7769],[-87.801,41.7791],[-87.8015,41.7919],[-87.7619,41.7927],[-87.7436,41.793],[-87.7232,41.7932],[-87.723,41.7859],[-87.7254,41.7859],[-87.7254,41.7856],[-87.7253,41.7823],[-87.7229,41.7823],[-87.7226,41.7714],[-87.7421,41.7711]]]]}},{"type":"Feature","properties":{"ward":14,"label":[-87.7265,41.8121]},"geometry":{"type":"MultiPolygon","coordinates":[[[[-87.6942,41.8083],[-87.694,41.801],[-87.6855,41.8011],[-87.6853,41.7952],[-87.689,41.7952],[-87.6889,41.7938],[-87.6962,41.7936],[-87.6961,41.79],[-87.6986,41.79],[-87.6985,41.7863],[-87.7009,41.7863],[-87.7008,41.7826],[-87.702,41.7826],[-87.7017,41.7717],[-87.7102,41.7716],[-87.7103,41.7752],[-87.7126,41.7752],[-87.7129,41.7856],[-87.7129,41.7861],[-87.7131,41.7861],[-87.7133,41.7897],[-87.7136,41.8007],[-87.716,41.8007],[-87.716,41.8002],[-87.7208,41.8002],[-87.7221,41.8002],[-87.7221,41.8006],[-87.7307,41.8004],[-87.7307,41.8006],[-87.7319,41.8004],[-87.7319,41.8005],[-87.7324,41.8005],[-87.743,41.8003],[-87.7431,41.804],[-87.7394,41.804],[-87.7395,41.8077],[-87.7382,41.8077],[-87.7383,41.8113],[-87.7385,41.8131],[-87.7386,41.8205],[-87.7381,41.8206],[-87.7289,41.8235],[-87.7283,41.8236],[-87.7244,41.8249],[-87.7242,41.825],[-87.7242,41.8253],[-87.7239,41.8253],[-87.7239,41.8251],[-87.7238,41.8251],[-87.7196,41.8264],[-87.7176,41.8271],[-87.7149,41.8278],[-87.7144,41.8281],[-87.7144,41.8273],[-87.7143,41.8257],[-87.7143,41.8215],[-87.7139,41.808],[-87.704,41.8081],[-87.704,41.8099],[-87.7029,41.81],[-87.7016,41.81],[-87.7015,41.8082],[-87.6942,41.8083]]]]}},{"type":"Feature","properties":{"ward":15,"label":[-87.6866,41.8052]},"geometry":{"type":"MultiPolygon","coordinates":[[[[-87.6358,41.809],[-87.6407,41.809],[-87.6406,41.8055],[-87.6406,41.8054],[-87.6405,41.8053],[-87.6413,41.805],[-87.6425,41.805],[-87.643,41.8049],[-87.6454,41.8049],[-87.6455,41.8089],[-87.6674,41.8086],[-87.6673,41.8049],[-87.6697,41.8049],[-87.6697,41.8031],[-87.6727,41.8031],[-87.6727,41.8012],[-87.6796,41.8012],[-87.6796,41.7989],[-87.6836,41.7988],[-87.6835,41.7939],[-87.6755,41.7939],[-87.6755,41.7921],[-87.667,41.7922],[-87.6668,41.7867],[-87.6656,41.7867],[-87.6654,41.7796],[-87.6655,41.7793],[-87.6654,41.7776],[-87.6642,41.7777],[-87.6641,41.774],[-87.6714,41.7739],[-87.6717,41.7867],[-87.6811,41.7865],[-87.6812,41.7884],[-87.6837,41.7883],[-87.6845,41.7884],[-87.6845,41.787],[-87.6851,41.787],[-87.6851,41.7865],[-87.6936,41.7864],[-87.6936,41.786],[-87.6942,41.7859],[-87.694,41.7796],[-87.6934,41.7796],[-87.6932,41.7718],[-87.7017,41.7717],[-87.702,41.7826],[-87.7008,41.7826],[-87.7009,41.7863],[-87.6985,41.7863],[-87.6986,41.79],[-87.6961,41.79],[-87.6962,41.7936],[-87.6889,41.7938],[-87.689,41.7952],[-87.6853,41.7952],[-87.6855,41.8011],[-87.694,41.801],[-87.6942,41.8083],[-87.6893,41.8084],[-87.6894,41.812],[-87.687,41.812],[-87.6871,41.8157],[-87.6841,41.8157],[-87.6839,41.8084],[-87.6795,41.8085],[-87.679,41.8048],[-87.677,41.8048],[-87.6771,41.8085],[-87.6749,41.8085],[-87.675,41.8103],[-87.6723,41.8104],[-87.6724,41.8158],[-87.6651,41.8159],[-87.6651,41.8122],[-87.6604,41.8123],[-87.6586,41.8124],[-87.6456,41.8125],[-87.6457,41.8148],[-87.6375,41.815],[-87.6375,41.8163],[-87.636,41.8163],[-87.6359,41.8117],[-87.6358,41.809]]]]}},{"type":"Feature","properties":{"ward":16,"label":[-87.6512,41.7861]},"geometry":{"type":"MultiPolygon","coordinates":[[[[-87.6408,41.7762],[-87.6427,41.7761],[-87.6426,41.7725],[-87.6433,41.7725],[-87.6432,41.7707],[-87.6446,41.7707],[-87.6444,41.7652],[-87.6541,41.7651],[-87.6545,41.7778],[-87.6593,41.7777],[-87.6591,41.7704],[-87.6725,41.7703],[-87.6724,41.7685],[-87.682,41.7683],[-87.682,41.7665],[-87.6882,41.7664],[-87.6882,41.7683],[-87.6931,41.7682],[-87.6934,41.7796],[-87.694,41.7796],[-87.6942,41.7859],[-87.6936,41.786],[-87.6936,41.7864],[-87.6851,41.7865],[-87.6851,41.787],[-87.6845,41.787],[-87.6845,41.7884],[-87.6837,41.7883],[-87.6812,41.7884],[-87.6811,41.7865],[-87.6717,41.7867],[-87.6714,41.7739],[-87.6641,41.774],[-87.6642,41.7777],[-87.6654,41.7776],[-87.6655,41.7793],[-87.6654,41.7796],[-87.6656,41.7867],[-87.6668,41.7867],[-87.667,41.7922],[-87.6755,41.7921],[-87.6755,41.7939],[-87.6835,41.7939],[-87.6836,41.7988],[-87.6796,41.7989],[-87.6796,41.8012],[-87.6599,41.8014],[-87.6599,41.8009],[-87.6605,41.8009],[-87.6604,41.7959],[-87.661,41.7959],[-87.6609,41.7941],[-87.6549,41.7942],[-87.655,41.7978],[-87.6501,41.7979],[-87.6501,41.7978],[-87.6452,41.7978],[-87.6453,41.7979],[-87.6405,41.798],[-87.6405,41.798],[-87.6404,41.7953],[-87.6403,41.7944],[-87.6403,41.7922],[-87.64,41.7807],[-87.6426,41.7807],[-87.6426,41.7798],[-87.6448,41.7798],[-87.6448,41.7791],[-87.6408,41.7791],[-87.6408,41.7762]]]]}},{"type":"Feature","properties":{"ward":17,"label":[-87.6547,41.7538]},"geometry":{"type":"MultiPolygon","coordinates":[[[[-87.6542,41.7687],[-87.6541,41.7651],[-87.6444,41.7652],[-87.6443,41.7597],[-87.6393,41.7598],[-87.6392,41.758],[-87.6394,41.7562],[-87.629,41.7563],[-87.6289,41.7559],[-87.6288,41.7559],[-87.6287,41.755],[-87.6286,41.755],[-87.6286,41.7545],[-87.6271,41.7546],[-87.627,41.7509],[-87.6258,41.7509],[-87.6257,41.7473],[-87.6284,41.7472],[-87.6318,41.7472],[-87.6319,41.7508],[-87.6428,41.7507],[-87.6428,41.7488],[-87.644,41.7488],[-87.6436,41.7373],[-87.645,41.7366],[-87.6448,41.737],[-87.6473,41.7369],[-87.6473,41.736],[-87.657,41.7359],[-87.6571,41.7395],[-87.6583,41.7395],[-87.6584,41.7431],[-87.673,41.7429],[-87.6733,41.7575],[-87.6785,41.7575],[-87.6786,41.7648],[-87.6832,41.7647],[-87.6832,41.7629],[-87.693,41.7627],[-87.693,41.7645],[-87.7028,41.7644],[-87.7027,41.7608],[-87.7075,41.7607],[-87.7076,41.7607],[-87.7075,41.7586],[-87.7076,41.7584],[-87.712,41.7583],[-87.7122,41.7584],[-87.7122,41.7594],[-87.7122,41.7606],[-87.7124,41.7606],[-87.7126,41.766],[-87.7127,41.7715],[-87.6932,41.7718],[-87.6931,41.7682],[-87.6882,41.7683],[-87.6882,41.7664],[-87.682,41.7665],[-87.682,41.7683],[-87.6724,41.7685],[-87.6725,41.7703],[-87.6591,41.7704],[-87.6593,41.7777],[-87.6545,41.7778],[-87.6542,41.7687]]]]}},{"type":"Feature","properties":{"ward":18,"label":[-87.6966,41.7488]},"geometry":{"type":"MultiPolygon","coordinates":[[[[-87.6583,41.7395],[-87.6632,41.7394],[-87.6631,41.7358],[-87.6618,41.7358],[-87.6617,41.7321],[-87.663,41.732],[-87.663,41.7321],[-87.6641,41.7318],[-87.6647,41.7316],[-87.6654,41.7312],[-87.6654,41.7321],[-87.6666,41.7321],[-87.6665,41.7302],[-87.6667,41.7302],[-87.6709,41.7352],[-87.6709,41.7357],[-87.7015,41.7352],[-87.7411,41.7345],[-87.7409,41.7358],[-87.7409,41.7369],[-87.7419,41.7641],[-87.7363,41.7642],[-87.7333,41.7641],[-87.7318,41.7641],[-87.7244,41.7641],[-87.7234,41.7642],[-87.7224,41.7641],[-87.7222,41.7604],[-87.7222,41.7568],[-87.7123,41.7569],[-87.7124,41.7606],[-87.7122,41.7606],[-87.7122,41.759],[-87.7121,41.7583],[-87.7076,41.7584],[-87.7075,41.7585],[-87.7075,41.7586],[-87.7076,41.7607],[-87.7027,41.7608],[-87.7028,41.7644],[-87.693,41.7645],[-87.693,41.7627],[-87.6832,41.7629],[-87.6832,41.7647],[-87.6786,41.7648],[-87.6785,41.7575],[-87.6733,41.7575],[-87.673,41.7429],[-87.6584,41.7431],[-87.6583,41.7395]]]]}},{"type":"Feature","properties":{"ward":19,"label":[-87.6781,41.6983]},"geometry":{"type":"MultiPolygon","coordinates":[[[[-87.6667,41.7302],[-87.6682,41.7302],[-87.6674,41.7285],[-87.6671,41.7281],[-87.6657,41.7256],[-87.6644,41.723],[-87.6635,41.7212],[-87.663,41.7184],[-87.6598,41.714],[-87.6596,41.714],[-87.6561,41.707],[-87.656,41.7068],[-87.6593,41.6978],[-87.6641,41.691],[-87.6719,41.6773],[-87.6785,41.6772],[-87.6817,41.6773],[-87.6862,41.6772],[-87.6858,41.6782],[-87.6856,41.6791],[-87.6857,41.6845],[-87.6956,41.6843],[-87.6958,41.6881],[-87.6966,41.688],[-87.6995,41.6879],[-87.6994,41.6861],[-87.7006,41.6861],[-87.7006,41.6843],[-87.7054,41.6842],[-87.7053,41.6805],[-87.7077,41.6805],[-87.7077,41.6806],[-87.7114,41.6805],[-87.7114,41.6813],[-87.7116,41.6813],[-87.7116,41.6818],[-87.7114,41.6818],[-87.7115,41.6841],[-87.7218,41.6839],[-87.7218,41.684],[-87.7249,41.684],[-87.7393,41.6837],[-87.7395,41.6891],[-87.7397,41.6891],[-87.7397,41.6908],[-87.7252,41.691],[-87.7252,41.6912],[-87.7203,41.6913],[-87.7209,41.705],[-87.7211,41.7132],[-87.7126,41.7133],[-87.7125,41.7115],[-87.7113,41.7115],[-87.7111,41.7061],[-87.7013,41.7062],[-87.7014,41.7071],[-87.7012,41.7071],[-87.6915,41.7072],[-87.6917,41.7136],[-87.6818,41.7137],[-87.6825,41.7355],[-87.6709,41.7357],[-87.6709,41.7352],[-87.6667,41.7302]],[[-87.6959,41.6916],[-87.6921,41.6917],[-87.6921,41.6922],[-87.6918,41.6922],[-87.6917,41.6923],[-87.691,41.6923],[-87.6912,41.699],[-87.6962,41.699],[-87.6961,41.6953],[-87.6959,41.6916]]]]}},{"type":"Feature","properties":{"ward":20,"label":[-87.6159,41.7837]},"geometry":{"type":"MultiPolygon","coordinates":[[[[-87.6208,41.7938],[-87.616,41.7939],[-87.6161,41.8009],[-87.6161,41.8021],[-87.6164,41.8032],[-87.6165,41.8039],[-87.6155,41.8039],[-87.6156,41.8058],[-87.6126,41.8058],[-87.6125,41.804],[-87.6043,41.8041],[-87.6042,41.8023],[-87.6029,41.8023],[-87.6027,41.7953],[-87.6037,41.7953],[-87.6038,41.7955],[-87.6038,41.795],[-87.6062,41.795],[-87.606,41.7859],[-87.6044,41.7859],[-87.6044,41.7853],[-87.6028,41.7853],[-87.6028,41.7841],[-87.5963,41.7842],[-87.5963,41.786],[-87.5947,41.7861],[-87.5947,41.7842],[-87.5914,41.7842],[-87.5914,41.7833],[-87.5905,41.7833],[-87.5903,41.7834],[-87.5901,41.7832],[-87.5899,41.7832],[-87.591,41.7788],[-87.5915,41.7788],[-87.5914,41.778],[-87.5921,41.7751],[-87.5918,41.7751],[-87.5922,41.7733],[-87.6054,41.7731],[-87.6179,41.7729],[-87.6197,41.7743],[-87.6205,41.7746],[-87.6212,41.7748],[-87.6224,41.775],[-87.626,41.7749],[-87.6267,41.775],[-87.6276,41.7753],[-87.6281,41.7755],[-87.6286,41.7758],[-87.6301,41.777],[-87.6301,41.7766],[-87.6311,41.7781],[-87.6314,41.7781],[-87.6396,41.778],[-87.6396,41.7762],[-87.6408,41.7762],[-87.6408,41.7791],[-87.6448,41.7791],[-87.6448,41.7798],[-87.6426,41.7798],[-87.6426,41.7807],[-87.64,41.7807],[-87.6403,41.7922],[-87.6403,41.7944],[-87.6404,41.7953],[-87.6405,41.798],[-87.6453,41.7979],[-87.6452,41.7978],[-87.6501,41.7978],[-87.6501,41.7979],[-87.655,41.7978],[-87.6549,41.7942],[-87.6609,41.7941],[-87.661,41.7959],[-87.6604,41.7959],[-87.6605,41.8009],[-87.6599,41.8009],[-87.6599,41.8014],[-87.6727,41.8012],[-87.6727,41.8031],[-87.6697,41.8031],[-87.6697,41.8049],[-87.6673,41.8049],[-87.6674,41.8086],[-87.6455,41.8089],[-87.6454,41.8049],[-87.643,41.8049],[-87.6425,41.805],[-87.6413,41.805],[-87.6407,41.8052],[-87.6405,41.8053],[-87.6406,41.8054],[-87.6406,41.8055],[-87.6407,41.809],[-87.6348,41.8091],[-87.6348,41.8094],[-87.6334,41.8095],[-87.6334,41.8098],[-87.6322,41.8099],[-87.632,41.8103],[-87.632,41.8118],[-87.6334,41.8117],[-87.6335,41.8125],[-87.6346,41.8125],[-87.6347,41.8164],[-87.6352,41.8164],[-87.6352,41.8173],[-87.6354,41.8175],[-87.6354,41.8177],[-87.6336,41.8177],[-87.6336,41.8164],[-87.6291,41.8165],[-87.6289,41.8092],[-87.629,41.806],[-87.6288,41.8019],[-87.628,41.8019],[-87.6278,41.7965],[-87.6273,41.7965],[-87.6268,41.7964],[-87.6268,41.7946],[-87.6208,41.7947],[-87.6208,41.7938]]]]}},{"type":"Feature","properties":{"ward":21,"label":[-87.6467,41.687]},"geometry":{"type":"MultiPolygon","coordinates":[[[[-87.624,41.7301],[-87.6386,41.73],[-87.6386,41.7288],[-87.6398,41.7288],[-87.6394,41.7152],[-87.637,41.7152],[-87.637,41.7143],[-87.6394,41.7142],[-87.6392,41.707],[-87.6283,41.7071],[-87.6283,41.707],[-87.628,41.6971],[-87.6304,41.6971],[-87.6299,41.6779],[-87.6323,41.6779],[-87.6321,41.6706],[-87.6583,41.6703],[-87.6612,41.6703],[-87.6614,41.6775],[-87.6668,41.6774],[-87.6673,41.676],[-87.6684,41.6762],[-87.668,41.6774],[-87.6719,41.6773],[-87.6641,41.691],[-87.6593,41.6978],[-87.656,41.7068],[-87.6561,41.707],[-87.6596,41.714],[-87.6598,41.714],[-87.663,41.7184],[-87.6635,41.7212],[-87.6644,41.723],[-87.6657,41.7256],[-87.6671,41.7281],[-87.6674,41.7285],[-87.6682,41.7302],[-87.6665,41.7302],[-87.6666,41.7321],[-87.6654,41.7321],[-87.6654,41.7312],[-87.6647,41.7316],[-87.6641,41.7318],[-87.663,41.7321],[-87.663,41.732],[-87.6617,41.7321],[-87.6618,41.7358],[-87.6631,41.7358],[-87.6632,41.7394],[-87.6571,41.7395],[-87.657,41.7359],[-87.6473,41.736],[-87.6473,41.7369],[-87.6448,41.737],[-87.645,41.7366],[-87.6436,41.7373],[-87.6438,41.7434],[-87.6365,41.7435],[-87.6359,41.7442],[-87.6342,41.7435],[-87.6291,41.7436],[-87.6291,41.7419],[-87.629,41.7418],[-87.6256,41.7418],[-87.6251,41.7417],[-87.6243,41.7418],[-87.624,41.7317],[-87.624,41.7301]]]]}},{"type":"Feature","properties":{"ward":22,"label":[-87.7254,41.8385]},"geometry":{"type":"MultiPolygon","coordinates":[[[[-87.7076,41.8499],[-87.7076,41.8481],[-87.71,41.8481],[-87.7099,41.8426],[-87.705,41.8427],[-87.7047,41.8313],[-87.705,41.8311],[-87.71,41.8294],[-87.7113,41.8291],[-87.7141,41.8282],[-87.7144,41.8281],[-87.7149,41.8278],[-87.7176,41.8271],[-87.7196,41.8264],[-87.7238,41.8251],[-87.7239,41.8251],[-87.7239,41.8253],[-87.7242,41.8253],[-87.7242,41.825],[-87.7244,41.8249],[-87.7283,41.8236],[-87.7289,41.8235],[-87.7381,41.8206],[-87.7386,41.8205],[-87.7385,41.8131],[-87.7383,41.8113],[-87.7382,41.8077],[-87.7395,41.8077],[-87.7394,41.804],[-87.7431,41.804],[-87.743,41.8021],[-87.7528,41.802],[-87.7531,41.8133],[-87.7447,41.816],[-87.7448,41.822],[-87.7446,41.822],[-87.7385,41.8221],[-87.7388,41.8367],[-87.7389,41.8367],[-87.739,41.8385],[-87.7391,41.8385],[-87.7395,41.8513],[-87.7384,41.8514],[-87.7376,41.8515],[-87.7235,41.8517],[-87.7235,41.8516],[-87.7126,41.8517],[-87.7111,41.852],[-87.7111,41.8519],[-87.7109,41.8516],[-87.7104,41.8517],[-87.7077,41.8517],[-87.7076,41.8499]]]]}},{"type":"Feature","properties":{"ward":23,"label":[-87.7182,41.7679]},"geometry":{"type":"MultiPolygon","coordinates":[[[[-87.7102,41.7716],[-87.7127,41.7715],[-87.7126,41.766],[-87.7124,41.7606],[-87.7123,41.7569],[-87.7222,41.7568],[-87.7222,41.7604],[-87.7224,41.7641],[-87.7234,41.7642],[-87.7244,41.7641],[-87.7318,41.7641],[-87.7333,41.7641],[-87.7363,41.7642],[-87.7419,41.7641],[-87.7421,41.7711],[-87.7226,41.7714],[-87.7229,41.7823],[-87.7253,41.7823],[-87.7254,41.7856],[-87.7254,41.7859],[-87.723,41.7859],[-87.7232,41.7932],[-87.7436,41.793],[-87.7619,41.7927],[-87.8015,41.7919],[-87.8016,41.7948],[-87.8016,41.798],[-87.797,41.7994],[-87.7818,41.7997],[-87.7643,41.8],[-87.7527,41.8002],[-87.7528,41.802],[-87.743,41.8021],[-87.743,41.8003],[-87.7324,41.8005],[-87.7319,41.8005],[-87.7319,41.8004],[-87.7307,41.8006],[-87.7307,41.8004],[-87.7221,41.8006],[-87.7221,41.8002],[-87.7208,41.8002],[-87.716,41.8002],[-87.716,41.8007],[-87.7136,41.8007],[-87.7133,41.7897],[-87.7131,41.7861],[-87.7129,41.7861],[-87.7129,41.7856],[-87.7126,41.7752],[-87.7103,41.7752],[-87.7102,41.7716]]]]}},{"type":"Feature","properties":{"ward":24,"label":[-87.7171,41.8629]},"geometry":{"type":"MultiPolygon","coordinates":[[[[-87.6907,41.8564],[-87.6931,41.8558],[-87.6932,41.8574],[-87.6956,41.8574],[-87.6956,41.8556],[-87.6992,41.8555],[-87.6991,41.8519],[-87.6954,41.8519],[-87.6953,41.8483],[-87.6929,41.8483],[-87.6928,41.8447],[-87.6918,41.8447],[-87.6918,41.8436],[-87.6919,41.8434],[-87.6926,41.8431],[-87.6927,41.843],[-87.6928,41.8417],[-87.6929,41.8415],[-87.6931,41.8414],[-87.6944,41.8412],[-87.6943,41.8406],[-87.6942,41.8382],[-87.6941,41.8381],[-87.695,41.8374],[-87.6999,41.8373],[-87.7003,41.85],[-87.7076,41.8499],[-87.7076,41.85],[-87.7077,41.8517],[-87.7104,41.8517],[-87.7109,41.8516],[-87.7111,41.8519],[-87.7111,41.852],[-87.7126,41.8517],[-87.7235,41.8516],[-87.7235,41.8517],[-87.7376,41.8515],[-87.7384,41.8514],[-87.7395,41.8513],[-87.74,41.866],[-87.7545,41.8658],[-87.7547,41.871],[-87.7449,41.8712],[-87.7451,41.875],[-87.7426,41.8751],[-87.7427,41.876],[-87.7402,41.876],[-87.7401,41.8719],[-87.739,41.872],[-87.7382,41.8723],[-87.7374,41.8726],[-87.7358,41.8733],[-87.7349,41.8736],[-87.7337,41.8739],[-87.7327,41.874],[-87.7093,41.8743],[-87.7081,41.8743],[-87.7059,41.8746],[-87.7059,41.8737],[-87.7035,41.8737],[-87.7032,41.8664],[-87.6959,41.8665],[-87.6957,41.8592],[-87.6908,41.8593],[-87.6907,41.8579],[-87.6908,41.8564],[-87.6907,41.8564]]]]}},{"type":"Feature","properties":{"ward":25,"label":[-87.6706,41.8519]},"geometry":{"type":"MultiPolygon","coordinates":[[[[-87.639,41.86],[-87.6389,41.8556],[-87.6387,41.8547],[-87.639,41.8546],[-87.6394,41.8543],[-87.6411,41.8518],[-87.6422,41.8505],[-87.6426,41.85],[-87.6433,41.8497],[-87.644,41.8495],[-87.6459,41.8494],[-87.6468,41.8492],[-87.6486,41.8486],[-87.6496,41.8484],[-87.651,41.8483],[-87.6531,41.8479],[-87.6563,41.8484],[-87.6567,41.8483],[-87.6576,41.848],[-87.6589,41.8472],[-87.6604,41.846],[-87.6616,41.8453],[-87.6635,41.8445],[-87.6638,41.8443],[-87.6639,41.844],[-87.6649,41.8447],[-87.6654,41.8449],[-87.6667,41.8449],[-87.6672,41.8449],[-87.6699,41.844],[-87.6723,41.8431],[-87.6729,41.8428],[-87.6749,41.8417],[-87.6755,41.8416],[-87.6755,41.8419],[-87.6766,41.8419],[-87.678,41.8425],[-87.6782,41.8476],[-87.6854,41.8448],[-87.6876,41.8448],[-87.6874,41.8436],[-87.6876,41.8403],[-87.6876,41.8376],[-87.6879,41.8376],[-87.6881,41.8373],[-87.6885,41.8372],[-87.695,41.8351],[-87.6949,41.8344],[-87.6952,41.8343],[-87.6998,41.8328],[-87.7,41.8328],[-87.7003,41.8327],[-87.7047,41.8313],[-87.705,41.8427],[-87.7099,41.8426],[-87.71,41.8481],[-87.7076,41.8481],[-87.7076,41.8499],[-87.7003,41.85],[-87.6999,41.8373],[-87.695,41.8374],[-87.6941,41.8381],[-87.6942,41.8382],[-87.6943,41.8406],[-87.6944,41.8412],[-87.6931,41.8414],[-87.6929,41.8415],[-87.6928,41.8417],[-87.6927,41.843],[-87.6926,41.8431],[-87.6919,41.8434],[-87.6918,41.8436],[-87.6918,41.8447],[-87.6928,41.8447],[-87.6929,41.8483],[-87.6953,41.8483],[-87.6954,41.8519],[-87.6991,41.8519],[-87.6992,41.8555],[-87.6956,41.8556],[-87.6956,41.8574],[-87.6932,41.8574],[-87.6931,41.8558],[-87.6882,41.8569],[-87.688,41.8539],[-87.6906,41.8538],[-87.6905,41.8501],[-87.6856,41.8502],[-87.6858,41.8572],[-87.6803,41.8584],[-87.6784,41.8587],[-87.6785,41.8589],[-87.676,41.8593],[-87.6736,41.8595],[-87.6596,41.8597],[-87.6572,41.8625],[-87.6516,41.8625],[-87.6509,41.8623],[-87.6478,41.8623],[-87.6479,41.8639],[-87.6468,41.8639],[-87.6468,41.8642],[-87.645,41.8642],[-87.6449,41.8624],[-87.6439,41.8624],[-87.6437,41.8625],[-87.6433,41.8626],[-87.6429,41.8625],[-87.6423,41.8624],[-87.6391,41.8625],[-87.639,41.86]]]]}},{"type":"Feature","properties":{"ward":26,"label":[-87.7049,41.9083]},"geometry":{"type":"MultiPolygon","coordinates":[[[[-87.7365,41.9225],[-87.7363,41.917],[-87.729,41.9171],[-87.7291,41.919],[-87.7138,41.9191],[-87.707,41.9192],[-87.707,41.9174],[-87.6977,41.9175],[-87.6976,41.914],[-87.6971,41.914],[-87.6971,41.9139],[-87.6922,41.9139],[-87.692,41.9066],[-87.6871,41.9067],[-87.687,41.9021],[-87.6878,41.9021],[-87.6878,41.9025],[-87.6969,41.9024],[-87.6968,41.9002],[-87.6943,41.9002],[-87.6943,41.8993],[-87.6968,41.8993],[-87.6968,41.8981],[-87.7004,41.898],[-87.7004,41.8963],[-87.701,41.8966],[-87.701,41.898],[-87.7019,41.898],[-87.702,41.8992],[-87.7088,41.8992],[-87.7114,41.9002],[-87.7119,41.9001],[-87.7128,41.9008],[-87.7165,41.9022],[-87.7166,41.9046],[-87.7197,41.9045],[-87.7197,41.9063],[-87.7252,41.9063],[-87.7252,41.9062],[-87.7253,41.9062],[-87.7258,41.9064],[-87.7258,41.9081],[-87.7289,41.908],[-87.7289,41.9087],[-87.7302,41.9086],[-87.7302,41.9093],[-87.7314,41.9093],[-87.7314,41.9098],[-87.7337,41.9098],[-87.7337,41.9103],[-87.7349,41.9103],[-87.7349,41.9116],[-87.7362,41.9116],[-87.7362,41.9135],[-87.7382,41.9136],[-87.7413,41.9139],[-87.7414,41.917],[-87.7461,41.9169],[-87.7461,41.9165],[-87.7494,41.9164],[-87.7495,41.9169],[-87.7534,41.9168],[-87.7534,41.918],[-87.7535,41.9187],[-87.7572,41.9187],[-87.7573,41.9223],[-87.7418,41.9225],[-87.7418,41.9243],[-87.7417,41.9243],[-87.7416,41.9243],[-87.7416,41.9225],[-87.7365,41.9225]]]]}},{"type":"Feature","properties":{"ward":27,"label":[-87.652,41.9]},"geometry":{"type":"MultiPolygon","coordinates":[[[[-87.6342,41.8966],[-87.6442,41.8965],[-87.6441,41.8941],[-87.6438,41.8939],[-87.6436,41.8935],[-87.6429,41.8932],[-87.6421,41.8926],[-87.6416,41.892],[-87.6412,41.8914],[-87.6431,41.8913],[-87.6429,41.8909],[-87.6428,41.8908],[-87.643,41.8902],[-87.6429,41.889],[-87.6483,41.889],[-87.6476,41.8882],[-87.6475,41.8868],[-87.6464,41.8868],[-87.6464,41.8866],[-87.6462,41.8854],[-87.646,41.8832],[-87.6486,41.8831],[-87.6485,41.8818],[-87.6497,41.8817],[-87.6497,41.8831],[-87.6544,41.883],[-87.6544,41.8834],[-87.6556,41.8834],[-87.6556,41.883],[-87.6567,41.883],[-87.6567,41.8823],[-87.6588,41.8823],[-87.6588,41.8816],[-87.6596,41.8816],[-87.6596,41.8815],[-87.6595,41.8803],[-87.6571,41.8803],[-87.6571,41.8791],[-87.6546,41.8791],[-87.6546,41.8778],[-87.6595,41.8778],[-87.6594,41.8765],[-87.6643,41.8764],[-87.6644,41.8815],[-87.6661,41.8815],[-87.6692,41.8789],[-87.6692,41.8763],[-87.6667,41.8764],[-87.6664,41.8669],[-87.6836,41.8666],[-87.6832,41.8671],[-87.6741,41.8747],[-87.6741,41.8751],[-87.6765,41.875],[-87.6765,41.874],[-87.6813,41.874],[-87.6814,41.8749],[-87.6863,41.875],[-87.6863,41.8761],[-87.6914,41.876],[-87.6914,41.8784],[-87.6938,41.8784],[-87.6937,41.876],[-87.6962,41.876],[-87.6961,41.8738],[-87.701,41.8737],[-87.7012,41.881],[-87.7037,41.881],[-87.7037,41.8819],[-87.7061,41.8819],[-87.7064,41.8903],[-87.7113,41.8903],[-87.7112,41.8881],[-87.721,41.888],[-87.721,41.8899],[-87.7223,41.8899],[-87.7227,41.9032],[-87.7214,41.9032],[-87.7214,41.9027],[-87.7202,41.9027],[-87.7202,41.9022],[-87.719,41.9023],[-87.7189,41.9009],[-87.7153,41.9009],[-87.7152,41.8991],[-87.7102,41.8992],[-87.7089,41.8983],[-87.7066,41.8969],[-87.7066,41.8983],[-87.6874,41.8906],[-87.6655,41.891],[-87.6655,41.8899],[-87.6622,41.8899],[-87.6622,41.889],[-87.6621,41.8889],[-87.6619,41.8889],[-87.6607,41.8889],[-87.6608,41.8891],[-87.6609,41.89],[-87.6599,41.89],[-87.6574,41.8929],[-87.6574,41.8935],[-87.6656,41.8934],[-87.6657,41.8961],[-87.6649,41.8961],[-87.6649,41.8977],[-87.6649,41.8984],[-87.6625,41.8984],[-87.6625,41.9008],[-87.6665,41.9034],[-87.6613,41.9034],[-87.6611,41.905],[-87.6613,41.906],[-87.6618,41.907],[-87.6624,41.9077],[-87.6643,41.9094],[-87.6652,41.9107],[-87.6511,41.9109],[-87.651,41.9085],[-87.6482,41.9086],[-87.6483,41.91],[-87.6477,41.9096],[-87.647,41.9101],[-87.6462,41.9102],[-87.6462,41.9109],[-87.6471,41.9109],[-87.6471,41.9114],[-87.6459,41.9114],[-87.6458,41.911],[-87.6454,41.911],[-87.6455,41.9102],[-87.6443,41.9102],[-87.6441,41.9104],[-87.6434,41.9104],[-87.6434,41.9092],[-87.6422,41.9092],[-87.6421,41.9058],[-87.6421,41.9056],[-87.6411,41.9049],[-87.6408,41.9051],[-87.641,41.9092],[-87.6385,41.9092],[-87.6386,41.9112],[-87.638,41.9112],[-87.6381,41.9117],[-87.6367,41.9117],[-87.6367,41.9111],[-87.6376,41.9111],[-87.6376,41.9103],[-87.6374,41.9102],[-87.6373,41.9098],[-87.6372,41.9076],[-87.6385,41.9076],[-87.6384,41.9057],[-87.6371,41.9057],[-87.637,41.9038],[-87.6314,41.9039],[-87.6314,41.9031],[-87.633,41.9031],[-87.6329,41.9013],[-87.6344,41.9013],[-87.6343,41.8982],[-87.6372,41.8982],[-87.6373,41.8989],[-87.6388,41.8989],[-87.6387,41.897],[-87.6372,41.897],[-87.6372,41.8974],[-87.6342,41.8974],[-87.6342,41.8966]]]]}},{"type":"Feature","properties":{"ward":28,"label":[-87.7351,41.8833]},"geometry":{"type":"MultiPolygon","coordinates":[[[[-87.721,41.888],[-87.7112,41.8881],[-87.7113,41.8903],[-87.7064,41.8903],[-87.7061,41.8819],[-87.7037,41.8819],[-87.7037,41.881],[-87.7012,41.881],[-87.701,41.8737],[-87.6961,41.8738],[-87.6962,41.876],[-87.6937,41.876],[-87.6938,41.8784],[-87.6914,41.8784],[-87.6914,41.876],[-87.6863,41.8761],[-87.6863,41.875],[-87.6814,41.8749],[-87.6813,41.874],[-87.6765,41.874],[-87.6765,41.875],[-87.6741,41.8751],[-87.6741,41.8747],[-87.6832,41.8671],[-87.6836,41.8666],[-87.6664,41.8669],[-87.6666,41.8752],[-87.6618,41.8753],[-87.6618,41.8738],[-87.6642,41.8737],[-87.6641,41.8717],[-87.6619,41.8717],[-87.6617,41.8718],[-87.6617,41.8721],[-87.6609,41.8722],[-87.6568,41.8723],[-87.6567,41.867],[-87.6533,41.8671],[-87.6513,41.8694],[-87.6513,41.8695],[-87.647,41.8696],[-87.6471,41.8743],[-87.641,41.8744],[-87.641,41.8768],[-87.6371,41.8768],[-87.6364,41.8757],[-87.6368,41.8757],[-87.6367,41.8756],[-87.6363,41.8756],[-87.6359,41.8751],[-87.6356,41.8747],[-87.6351,41.872],[-87.6346,41.872],[-87.6346,41.8716],[-87.6349,41.8714],[-87.635,41.8711],[-87.6347,41.8702],[-87.6345,41.8698],[-87.6346,41.8692],[-87.6344,41.8674],[-87.6353,41.8674],[-87.6353,41.8672],[-87.6351,41.8673],[-87.6349,41.8601],[-87.639,41.86],[-87.6391,41.8625],[-87.6423,41.8624],[-87.6429,41.8625],[-87.6433,41.8626],[-87.6437,41.8625],[-87.6439,41.8624],[-87.6449,41.8624],[-87.645,41.8642],[-87.6468,41.8642],[-87.6468,41.8639],[-87.6479,41.8639],[-87.6478,41.8623],[-87.6509,41.8623],[-87.6516,41.8625],[-87.6572,41.8625],[-87.6596,41.8597],[-87.6736,41.8595],[-87.676,41.8593],[-87.6785,41.8589],[-87.6784,41.8587],[-87.6803,41.8584],[-87.6858,41.8572],[-87.6856,41.8502],[-87.6905,41.8501],[-87.6906,41.8538],[-87.688,41.8539],[-87.6882,41.8569],[-87.6907,41.8564],[-87.6908,41.8564],[-87.6907,41.8579],[-87.6908,41.8593],[-87.6957,41.8592],[-87.6959,41.8665],[-87.7032,41.8664],[-87.7035,41.8737],[-87.7059,41.8737],[-87.7059,41.8746],[-87.7081,41.8743],[-87.7093,41.8743],[-87.7327,41.874],[-87.7337,41.8739],[-87.7349,41.8736],[-87.7358,41.8733],[-87.7374,41.8726],[-87.7382,41.8723],[-87.739,41.872],[-87.7401,41.8719],[-87.7402,41.876],[-87.7427,41.876],[-87.7426,41.8751],[-87.7457,41.875],[-87.7458,41.8768],[-87.7493,41.8767],[-87.7492,41.8758],[-87.7534,41.8758],[-87.7533,41.8749],[-87.7549,41.8748],[-87.7553,41.8878],[-87.748,41.8879],[-87.748,41.8878],[-87.7455,41.8878],[-87.7458,41.895],[-87.7405,41.8951],[-87.74,41.8947],[-87.7376,41.8934],[-87.7349,41.8925],[-87.7324,41.8919],[-87.7291,41.8917],[-87.7283,41.8915],[-87.7279,41.8913],[-87.7276,41.8909],[-87.7274,41.8905],[-87.7271,41.8897],[-87.7267,41.8891],[-87.7265,41.8888],[-87.7259,41.8883],[-87.7258,41.8855],[-87.7209,41.8852],[-87.721,41.888]]]]}},{"type":"Feature","properties":{"ward":29,"label":[-87.7663,41.8737]},"geometry":{"type":"MultiPolygon","coordinates":[[[[-87.8013,41.9394],[-87.8007,41.9216],[-87.7988,41.9209],[-87.7988,41.9212],[-87.7923,41.9212],[-87.7924,41.9236],[-87.7886,41.9237],[-87.7879,41.9233],[-87.7877,41.917],[-87.7869,41.9168],[-87.7858,41.9167],[-87.7852,41.9166],[-87.7853,41.9182],[-87.7804,41.9183],[-87.7804,41.9179],[-87.7803,41.9178],[-87.7682,41.9181],[-87.7682,41.9169],[-87.7669,41.9169],[-87.767,41.919],[-87.7658,41.9188],[-87.7657,41.9145],[-87.7655,41.9102],[-87.7655,41.9099],[-87.7659,41.9089],[-87.7659,41.9086],[-87.7649,41.8822],[-87.7616,41.8823],[-87.7615,41.8803],[-87.7551,41.8804],[-87.7549,41.8748],[-87.7533,41.8749],[-87.7534,41.8758],[-87.7492,41.8758],[-87.7493,41.8767],[-87.7458,41.8768],[-87.7457,41.875],[-87.7451,41.875],[-87.7449,41.8712],[-87.7547,41.871],[-87.7545,41.8658],[-87.7741,41.8655],[-87.7756,41.9093],[-87.8026,41.9089],[-87.8057,41.9088],[-87.8066,41.9345],[-87.8164,41.9343],[-87.8166,41.9396],[-87.8013,41.9399],[-87.8013,41.9394]]]]}},{"type":"Feature","properties":{"ward":30,"label":[-87.7766,41.9381]},"geometry":{"type":"MultiPolygon","coordinates":[[[[-87.7324,41.9518],[-87.7291,41.9518],[-87.7275,41.9509],[-87.7276,41.9527],[-87.7251,41.9528],[-87.7251,41.9519],[-87.7178,41.952],[-87.7176,41.9474],[-87.7175,41.9447],[-87.7175,41.9434],[-87.7174,41.9392],[-87.7469,41.9388],[-87.7471,41.9461],[-87.7594,41.946],[-87.7592,41.9414],[-87.7617,41.9414],[-87.7616,41.9395],[-87.7567,41.9396],[-87.7567,41.9378],[-87.7542,41.9378],[-87.7542,41.9369],[-87.7615,41.9368],[-87.7616,41.9386],[-87.7689,41.9385],[-87.7687,41.9331],[-87.7675,41.9331],[-87.7675,41.9313],[-87.7662,41.9313],[-87.7661,41.9276],[-87.7612,41.9277],[-87.7611,41.9259],[-87.7661,41.9258],[-87.766,41.924],[-87.7854,41.9237],[-87.7856,41.9273],[-87.7795,41.9274],[-87.7796,41.9311],[-87.7857,41.931],[-87.7859,41.9375],[-87.786,41.9383],[-87.7854,41.9383],[-87.7855,41.9388],[-87.7856,41.942],[-87.7862,41.942],[-87.7864,41.9452],[-87.7863,41.9457],[-87.7668,41.9459],[-87.767,41.9532],[-87.7596,41.9533],[-87.7596,41.9519],[-87.7571,41.9519],[-87.7571,41.9515],[-87.7522,41.9515],[-87.7521,41.9493],[-87.7497,41.9493],[-87.7498,41.9497],[-87.7489,41.9497],[-87.7466,41.9498],[-87.7466,41.9493],[-87.7427,41.9494],[-87.7427,41.9498],[-87.7424,41.9498],[-87.7426,41.9531],[-87.7425,41.9535],[-87.7325,41.9536],[-87.7324,41.9518]]]]}},{"type":"Feature","properties":{"ward":31,"label":[-87.7489,41.9306]},"geometry":{"type":"MultiPolygon","coordinates":[[[[-87.7239,41.9391],[-87.7197,41.9365],[-87.7221,41.9343],[-87.7221,41.9319],[-87.727,41.9318],[-87.7268,41.9245],[-87.7292,41.9245],[-87.7292,41.9239],[-87.7317,41.9239],[-87.7316,41.9226],[-87.7389,41.9225],[-87.7416,41.9225],[-87.7416,41.9243],[-87.7417,41.9243],[-87.7418,41.9243],[-87.7418,41.9225],[-87.7586,41.9222],[-87.7586,41.9241],[-87.766,41.924],[-87.7661,41.9258],[-87.7611,41.9259],[-87.7612,41.9277],[-87.7661,41.9276],[-87.7662,41.9313],[-87.7675,41.9313],[-87.7675,41.9331],[-87.7687,41.9331],[-87.7689,41.9385],[-87.7616,41.9386],[-87.7615,41.9368],[-87.7542,41.9369],[-87.7542,41.9378],[-87.7567,41.9378],[-87.7567,41.9396],[-87.7616,41.9395],[-87.7617,41.9414],[-87.7592,41.9414],[-87.7594,41.946],[-87.7471,41.9461],[-87.7469,41.9388],[-87.7239,41.9391]]]]}},{"type":"Feature","properties":{"ward":32,"label":[-87.6768,41.9321]},"geometry":{"type":"MultiPolygon","coordinates":[[[[-87.681,41.9464],[-87.6798,41.9464],[-87.6797,41.945],[-87.6761,41.9451],[-87.676,41.9432],[-87.6645,41.9434],[-87.6644,41.9402],[-87.6638,41.9402],[-87.6638,41.9398],[-87.659,41.9398],[-87.6585,41.9253],[-87.6681,41.9252],[-87.6681,41.9243],[-87.6632,41.9207],[-87.6631,41.9195],[-87.663,41.9193],[-87.6603,41.9173],[-87.6601,41.9171],[-87.6591,41.9171],[-87.6578,41.9162],[-87.6544,41.9131],[-87.6555,41.9125],[-87.6541,41.9108],[-87.6872,41.9103],[-87.6879,41.9326],[-87.6883,41.9467],[-87.681,41.9468],[-87.681,41.9464]]]]}},{"type":"Feature","properties":{"ward":33,"label":[-87.7124,41.9629]},"geometry":{"type":"MultiPolygon","coordinates":[[[[-87.7035,41.9719],[-87.7032,41.9712],[-87.7026,41.9703],[-87.702,41.9696],[-87.7015,41.9692],[-87.7014,41.9689],[-87.7011,41.9685],[-87.7036,41.9685],[-87.7035,41.9647],[-87.6996,41.9648],[-87.6985,41.9636],[-87.6985,41.9635],[-87.6985,41.9612],[-87.6947,41.9613],[-87.6947,41.9612],[-87.6946,41.9592],[-87.6943,41.9579],[-87.6944,41.9571],[-87.6943,41.957],[-87.6943,41.9568],[-87.6944,41.9568],[-87.6945,41.9554],[-87.6944,41.9547],[-87.6945,41.954],[-87.6995,41.954],[-87.6994,41.9503],[-87.7055,41.9503],[-87.7054,41.9466],[-87.698,41.9467],[-87.6978,41.9394],[-87.7077,41.9393],[-87.7076,41.9399],[-87.7078,41.9459],[-87.7128,41.9493],[-87.7129,41.9539],[-87.7178,41.9538],[-87.7179,41.9556],[-87.7215,41.9556],[-87.7216,41.9574],[-87.7228,41.9574],[-87.7229,41.9592],[-87.7241,41.9592],[-87.7242,41.961],[-87.7278,41.9609],[-87.7279,41.9646],[-87.7273,41.9646],[-87.7274,41.9678],[-87.728,41.9678],[-87.728,41.9687],[-87.7244,41.9687],[-87.7245,41.9701],[-87.7207,41.9701],[-87.7208,41.972],[-87.7164,41.972],[-87.7165,41.9721],[-87.716,41.9719],[-87.7149,41.9718],[-87.7135,41.9719],[-87.7135,41.9719],[-87.7128,41.972],[-87.711,41.9721],[-87.7111,41.9736],[-87.7109,41.9738],[-87.7106,41.9739],[-87.7086,41.9739],[-87.7087,41.9757],[-87.7047,41.9758],[-87.7045,41.9752],[-87.7043,41.9743],[-87.7038,41.9731],[-87.7035,41.9719]]]]}},{"type":"Feature","properties":{"ward":34,"label":[-87.6502,41.8774]},"geometry":{"type":"MultiPolygon","coordinates":[[[[-87.6397,41.8891],[-87.6391,41.8868],[-87.6385,41.8861],[-87.6382,41.8857],[-87.6413,41.8857],[-87.6413,41.8855],[-87.6412,41.8812],[-87.6397,41.8812],[-87.6396,41.878],[-87.6323,41.8781],[-87.6323,41.8813],[-87.6353,41.8813],[-87.6354,41.8838],[-87.6351,41.8839],[-87.6324,41.8839],[-87.6324,41.8832],[-87.6294,41.8832],[-87.6295,41.8845],[-87.6262,41.8845],[-87.6263,41.8857],[-87.6239,41.8858],[-87.6239,41.8844],[-87.6245,41.8845],[-87.6243,41.8814],[-87.6243,41.877],[-87.6253,41.877],[-87.6253,41.8762],[-87.626,41.8762],[-87.6261,41.8782],[-87.6308,41.8781],[-87.6307,41.8769],[-87.6287,41.8769],[-87.6287,41.8759],[-87.6287,41.8756],[-87.6297,41.8755],[-87.6297,41.8757],[-87.6307,41.8757],[-87.6304,41.8674],[-87.6227,41.8676],[-87.6226,41.8658],[-87.6275,41.8657],[-87.6275,41.8673],[-87.6327,41.8673],[-87.6327,41.8674],[-87.6344,41.8674],[-87.6346,41.8692],[-87.6345,41.8698],[-87.6347,41.8702],[-87.635,41.8711],[-87.6349,41.8714],[-87.6346,41.8716],[-87.6346,41.872],[-87.6351,41.872],[-87.6356,41.8747],[-87.6359,41.8751],[-87.6363,41.8756],[-87.6367,41.8756],[-87.6368,41.8757],[-87.6364,41.8757],[-87.6371,41.8768],[-87.641,41.8768],[-87.641,41.8744],[-87.6471,41.8743],[-87.647,41.8696],[-87.6513,41.8695],[-87.6513,41.8694],[-87.6533,41.8671],[-87.6565,41.867],[-87.6567,41.867],[-87.6568,41.8723],[-87.6609,41.8722],[-87.6617,41.8721],[-87.6617,41.8718],[-87.6619,41.8717],[-87.6641,41.8717],[-87.6642,41.8737],[-87.6618,41.8738],[-87.6618,41.8753],[-87.6666,41.8752],[-87.6667,41.8764],[-87.6692,41.8763],[-87.6692,41.8789],[-87.6661,41.8815],[-87.6644,41.8815],[-87.6643,41.8764],[-87.6594,41.8765],[-87.6595,41.8778],[-87.6546,41.8778],[-87.6546,41.8791],[-87.6571,41.8791],[-87.6571,41.8803],[-87.6595,41.8803],[-87.6596,41.8815],[-87.6596,41.8816],[-87.6588,41.8816],[-87.6588,41.8823],[-87.6567,41.8823],[-87.6567,41.883],[-87.6556,41.883],[-87.6556,41.8834],[-87.6544,41.8834],[-87.6544,41.883],[-87.6497,41.8831],[-87.6497,41.8817],[-87.6485,41.8818],[-87.6486,41.8831],[-87.646,41.8832],[-87.6462,41.8854],[-87.6464,41.8866],[-87.6464,41.8868],[-87.6475,41.8868],[-87.6476,41.8882],[-87.6483,41.889],[-87.6429,41.889],[-87.643,41.8902],[-87.6428,41.8908],[-87.6429,41.8909],[-87.6431,41.8913],[-87.6415,41.8914],[-87.6411,41.8908],[-87.6407,41.8902],[-87.6398,41.8894],[-87.6397,41.8891]]]]}},{"type":"Feature","properties":{"ward":35,"label":[-87.7145,41.9278]},"geometry":{"type":"MultiPolygon","coordinates":[[[[-87.6962,41.9467],[-87.6954,41.9432],[-87.6953,41.9428],[-87.6941,41.941],[-87.6936,41.9403],[-87.6928,41.9395],[-87.6924,41.9394],[-87.6923,41.9392],[-87.6915,41.9388],[-87.6911,41.9382],[-87.6907,41.9374],[-87.6904,41.9369],[-87.6901,41.9367],[-87.6899,41.9366],[-87.6885,41.9364],[-87.688,41.9361],[-87.6878,41.9286],[-87.691,41.9303],[-87.694,41.9321],[-87.705,41.932],[-87.7049,41.9284],[-87.7052,41.9284],[-87.7055,41.9283],[-87.7058,41.9281],[-87.7023,41.926],[-87.7022,41.9224],[-87.7071,41.9223],[-87.7071,41.9215],[-87.7074,41.9214],[-87.7075,41.9212],[-87.7076,41.9211],[-87.7075,41.9208],[-87.7071,41.9207],[-87.707,41.9192],[-87.7291,41.919],[-87.729,41.9171],[-87.7363,41.917],[-87.7365,41.9225],[-87.7316,41.9226],[-87.7317,41.9239],[-87.7292,41.9239],[-87.7292,41.9245],[-87.7268,41.9245],[-87.727,41.9318],[-87.7221,41.9319],[-87.7221,41.9343],[-87.7197,41.9365],[-87.7239,41.9391],[-87.7174,41.9392],[-87.7175,41.9434],[-87.7175,41.9447],[-87.7176,41.9474],[-87.7178,41.9538],[-87.7129,41.9539],[-87.7128,41.9493],[-87.7078,41.9459],[-87.7076,41.9399],[-87.7077,41.9393],[-87.6978,41.9394],[-87.698,41.9467],[-87.7054,41.9466],[-87.7055,41.9503],[-87.6994,41.9503],[-87.6995,41.954],[-87.6945,41.954],[-87.6946,41.9537],[-87.6958,41.9522],[-87.6968,41.9502],[-87.6968,41.9497],[-87.6966,41.9484],[-87.6963,41.9476],[-87.6962,41.9467]]]]}},{"type":"Feature","properties":{"ward":36,"label":[-87.7936,41.9308]},"geometry":{"type":"MultiPolygon","coordinates":[[[[-87.766,41.924],[-87.7586,41.9241],[-87.7586,41.9222],[-87.7573,41.9223],[-87.7572,41.9187],[-87.7535,41.9187],[-87.7534,41.918],[-87.7534,41.9168],[-87.7495,41.9169],[-87.7494,41.9164],[-87.7461,41.9165],[-87.7461,41.9169],[-87.7414,41.917],[-87.7413,41.9139],[-87.7382,41.9136],[-87.7362,41.9135],[-87.7362,41.9116],[-87.7349,41.9116],[-87.7349,41.9103],[-87.7337,41.9103],[-87.7337,41.9098],[-87.7314,41.9098],[-87.7314,41.9093],[-87.7302,41.9093],[-87.7302,41.9086],[-87.7289,41.9087],[-87.7289,41.908],[-87.7258,41.9081],[-87.7258,41.9064],[-87.7253,41.9062],[-87.7252,41.9062],[-87.7252,41.9063],[-87.7197,41.9063],[-87.7197,41.9045],[-87.7166,41.9046],[-87.7165,41.9022],[-87.7128,41.9008],[-87.7119,41.9001],[-87.7114,41.9002],[-87.7088,41.8992],[-87.702,41.8992],[-87.7019,41.898],[-87.701,41.898],[-87.701,41.8966],[-87.7004,41.8963],[-87.7004,41.898],[-87.6968,41.8981],[-87.6968,41.8993],[-87.6943,41.8993],[-87.6943,41.9002],[-87.6968,41.9002],[-87.6969,41.9024],[-87.6878,41.9025],[-87.6878,41.9021],[-87.687,41.9021],[-87.687,41.9003],[-87.6845,41.9003],[-87.6845,41.8994],[-87.6723,41.8996],[-87.672,41.8909],[-87.6874,41.8906],[-87.7066,41.8983],[-87.7066,41.8969],[-87.7089,41.8983],[-87.7102,41.8992],[-87.7152,41.8991],[-87.7153,41.9009],[-87.7189,41.9009],[-87.719,41.9023],[-87.7202,41.9022],[-87.7202,41.9027],[-87.7214,41.9027],[-87.7214,41.9032],[-87.7239,41.9031],[-87.7239,41.9045],[-87.7257,41.9044],[-87.7258,41.9054],[-87.7264,41.9056],[-87.7264,41.9054],[-87.7362,41.9052],[-87.7363,41.9095],[-87.7363,41.9098],[-87.7356,41.9098],[-87.746,41.9139],[-87.746,41.9145],[-87.7559,41.9157],[-87.7559,41.9169],[-87.767,41.919],[-87.7669,41.9169],[-87.7682,41.9169],[-87.7682,41.9181],[-87.7803,41.9178],[-87.7804,41.9179],[-87.7804,41.9183],[-87.7853,41.9182],[-87.7852,41.9166],[-87.786,41.9167],[-87.7869,41.9168],[-87.7877,41.917],[-87.7879,41.9233],[-87.7886,41.9237],[-87.7924,41.9236],[-87.7923,41.9212],[-87.7988,41.9212],[-87.7988,41.9209],[-87.8007,41.9216],[-87.8013,41.9394],[-87.8,41.9394],[-87.8,41.9399],[-87.7982,41.9399],[-87.7981,41.9381],[-87.7873,41.9383],[-87.7874,41.942],[-87.7856,41.942],[-87.7854,41.9383],[-87.786,41.9383],[-87.7859,41.9375],[-87.7857,41.931],[-87.7796,41.9311],[-87.7795,41.9274],[-87.7856,41.9273],[-87.7854,41.9237],[-87.766,41.924]]]]}},{"type":"Feature","properties":{"ward":37,"label":[-87.7539,41.9036]},"geometry":{"type":"MultiPolygon","coordinates":[[[[-87.7227,41.9032],[-87.7223,41.8899],[-87.721,41.8899],[-87.7209,41.8852],[-87.7258,41.8855],[-87.7259,41.8883],[-87.7265,41.8888],[-87.7267,41.8891],[-87.7271,41.8897],[-87.7274,41.8905],[-87.7276,41.8909],[-87.7279,41.8913],[-87.7283,41.8915],[-87.7291,41.8917],[-87.7324,41.8919],[-87.7349,41.8925],[-87.7376,41.8934],[-87.74,41.8947],[-87.7405,41.8951],[-87.7458,41.895],[-87.7455,41.8878],[-87.748,41.8878],[-87.748,41.8879],[-87.7553,41.8878],[-87.7551,41.8804],[-87.7615,41.8803],[-87.7616,41.8823],[-87.7649,41.8822],[-87.7659,41.9086],[-87.7659,41.9089],[-87.7655,41.9099],[-87.7655,41.9102],[-87.7657,41.9145],[-87.7658,41.9188],[-87.7559,41.9169],[-87.7559,41.9157],[-87.746,41.9145],[-87.746,41.9139],[-87.7356,41.9098],[-87.7363,41.9098],[-87.7363,41.9095],[-87.7362,41.9052],[-87.7264,41.9054],[-87.7264,41.9056],[-87.7258,41.9054],[-87.7257,41.9044],[-87.7239,41.9045],[-87.7239,41.9031],[-87.7227,41.9032]]]]}},{"type":"Feature","properties":{"ward":38,"label":[-87.7776,41.9553]},"geometry":{"type":"MultiPolygon","coordinates":[[[[-87.7596,41.9533],[-87.767,41.9532],[-87.7668,41.9459],[-87.7863,41.9457],[-87.7864,41.9452],[-87.7862,41.942],[-87.7874,41.942],[-87.7873,41.9383],[-87.7981,41.9381],[-87.7982,41.9399],[-87.7998,41.9399],[-87.8,41.9399],[-87.8,41.9394],[-87.8013,41.9394],[-87.8013,41.9399],[-87.8166,41.9396],[-87.8165,41.9379],[-87.8496,41.9373],[-87.8514,41.9387],[-87.8518,41.9392],[-87.8521,41.9398],[-87.8525,41.9413],[-87.8531,41.9426],[-87.8531,41.9429],[-87.853,41.9434],[-87.8533,41.9438],[-87.8538,41.9458],[-87.8541,41.9466],[-87.855,41.948],[-87.855,41.9489],[-87.8549,41.9495],[-87.8543,41.9507],[-87.8541,41.9514],[-87.8466,41.9516],[-87.8466,41.9557],[-87.8581,41.9554],[-87.8583,41.9557],[-87.8586,41.9561],[-87.8587,41.9568],[-87.8588,41.9572],[-87.8587,41.9576],[-87.8576,41.9592],[-87.8558,41.9624],[-87.8557,41.9628],[-87.8555,41.9645],[-87.8549,41.9661],[-87.8461,41.9664],[-87.8367,41.9666],[-87.8367,41.9594],[-87.8327,41.9594],[-87.8318,41.9557],[-87.8318,41.9522],[-87.8073,41.9528],[-87.8073,41.9537],[-87.8001,41.9571],[-87.8001,41.9573],[-87.8,41.9574],[-87.7943,41.96],[-87.7868,41.9602],[-87.7869,41.9627],[-87.787,41.9631],[-87.787,41.9633],[-87.7868,41.9634],[-87.7868,41.9635],[-87.7867,41.9665],[-87.782,41.9666],[-87.782,41.9647],[-87.7772,41.9648],[-87.7772,41.9649],[-87.7674,41.965],[-87.7672,41.9587],[-87.7573,41.9588],[-87.7573,41.9574],[-87.7525,41.9575],[-87.7521,41.957],[-87.7528,41.957],[-87.7523,41.9565],[-87.7524,41.9558],[-87.7522,41.9552],[-87.7523,41.9552],[-87.7522,41.9534],[-87.7596,41.9533]]]]}},{"type":"Feature","properties":{"ward":39,"label":[-87.7356,41.982]},"geometry":{"type":"MultiPolygon","coordinates":[[[[-87.6992,41.9831],[-87.6989,41.9758],[-87.7087,41.9757],[-87.7086,41.9739],[-87.7106,41.9739],[-87.7109,41.9738],[-87.7111,41.9736],[-87.711,41.9721],[-87.7128,41.972],[-87.7135,41.9719],[-87.7135,41.9719],[-87.7149,41.9718],[-87.716,41.9719],[-87.7165,41.9721],[-87.7164,41.972],[-87.7208,41.972],[-87.7207,41.9701],[-87.7245,41.9701],[-87.7244,41.9687],[-87.728,41.9687],[-87.728,41.9678],[-87.7274,41.9678],[-87.7273,41.9646],[-87.7279,41.9646],[-87.7278,41.9609],[-87.7242,41.961],[-87.7241,41.9592],[-87.7229,41.9592],[-87.7228,41.9574],[-87.7216,41.9574],[-87.7215,41.955],[-87.7221,41.955],[-87.7228,41.9555],[-87.7277,41.9555],[-87.7276,41.9536],[-87.7309,41.9536],[-87.734,41.9553],[-87.7353,41.956],[-87.7394,41.9583],[-87.7433,41.9607],[-87.7435,41.9608],[-87.7446,41.9608],[-87.7474,41.9624],[-87.747,41.9629],[-87.7476,41.9642],[-87.7476,41.9645],[-87.7477,41.968],[-87.7476,41.9685],[-87.7478,41.9694],[-87.7479,41.9729],[-87.764,41.9827],[-87.7779,41.99],[-87.7779,41.9902],[-87.7864,41.9901],[-87.7876,41.9902],[-87.7874,41.9974],[-87.7755,41.9974],[-87.7703,41.9971],[-87.7655,41.9974],[-87.7409,41.9973],[-87.7228,41.9973],[-87.7227,41.9968],[-87.7234,41.9968],[-87.7233,41.9937],[-87.7221,41.9937],[-87.722,41.9907],[-87.7214,41.9907],[-87.7214,41.9902],[-87.7091,41.9904],[-87.7087,41.9889],[-87.7085,41.9885],[-87.7085,41.9882],[-87.7082,41.987],[-87.7079,41.9865],[-87.7078,41.9865],[-87.7078,41.9864],[-87.7079,41.9863],[-87.7078,41.986],[-87.7075,41.9852],[-87.7075,41.985],[-87.7069,41.9831],[-87.6992,41.9831]]]]}},{"type":"Feature","properties":{"ward":40,"label":[-87.6854,41.9824]},"geometry":{"type":"MultiPolygon","coordinates":[[[[-87.6815,42.0081],[-87.6798,42.0043],[-87.6752,42.0044],[-87.6751,42.0016],[-87.6719,42.0017],[-87.6706,41.9981],[-87.6702,41.9967],[-87.67,41.9892],[-87.6696,41.9868],[-87.6691,41.9853],[-87.6686,41.9827],[-87.6684,41.9815],[-87.6683,41.9797],[-87.6684,41.9763],[-87.6682,41.9744],[-87.6696,41.9743],[-87.6696,41.9734],[-87.6763,41.9733],[-87.6763,41.9724],[-87.6793,41.9724],[-87.6792,41.9706],[-87.689,41.9704],[-87.6888,41.9668],[-87.698,41.9667],[-87.6975,41.9662],[-87.6986,41.9662],[-87.697,41.9647],[-87.6956,41.9632],[-87.6947,41.9613],[-87.6985,41.9612],[-87.6985,41.9635],[-87.6985,41.9636],[-87.6996,41.9648],[-87.7035,41.9647],[-87.7036,41.9685],[-87.7011,41.9685],[-87.7014,41.9689],[-87.7015,41.9692],[-87.702,41.9696],[-87.7026,41.9703],[-87.7032,41.9712],[-87.7035,41.9719],[-87.7038,41.9731],[-87.7043,41.9743],[-87.7045,41.9752],[-87.7047,41.9758],[-87.6989,41.9758],[-87.6992,41.9855],[-87.7033,41.988],[-87.703,41.9883],[-87.703,41.9904],[-87.6982,41.9905],[-87.6983,41.994],[-87.6824,41.9942],[-87.6826,41.9979],[-87.6768,41.998],[-87.6779,42.0004],[-87.6802,42.0003],[-87.6802,42.0001],[-87.6875,42],[-87.6875,41.9996],[-87.6899,41.9995],[-87.6901,42.0059],[-87.6907,42.0059],[-87.6907,42.005],[-87.6949,42.0049],[-87.695,42.0086],[-87.6902,42.0086],[-87.6901,42.0081],[-87.6824,42.0084],[-87.6827,42.0089],[-87.6819,42.009],[-87.6815,42.0081]]]]}},{"type":"Feature","properties":{"ward":41,"label":[-87.9124,41.981]},"geometry":{"type":"MultiPolygon","coordinates":[[[[-87.7906,42.0004],[-87.7896,41.9992],[-87.7902,41.9989],[-87.7909,41.9989],[-87.7909,41.9973],[-87.7923,41.9973],[-87.7917,41.9938],[-87.7917,41.9937],[-87.7947,41.9937],[-87.7948,41.9937],[-87.7954,41.9931],[-87.7876,41.9888],[-87.7878,41.9821],[-87.7865,41.9821],[-87.7867,41.9757],[-87.7859,41.9757],[-87.7854,41.9755],[-87.7856,41.9684],[-87.7782,41.9685],[-87.7773,41.9676],[-87.7772,41.9667],[-87.7867,41.9665],[-87.7868,41.9684],[-87.788,41.9684],[-87.788,41.9689],[-87.7952,41.9688],[-87.7953,41.9689],[-87.7953,41.9688],[-87.8025,41.9688],[-87.8025,41.9683],[-87.8072,41.9683],[-87.8071,41.9745],[-87.8169,41.9743],[-87.817,41.9707],[-87.819,41.9706],[-87.819,41.9732],[-87.8194,41.9732],[-87.8194,41.9742],[-87.8267,41.974],[-87.8267,41.9731],[-87.8317,41.9731],[-87.8317,41.9739],[-87.8334,41.9739],[-87.8334,41.9749],[-87.8336,41.9749],[-87.8336,41.9754],[-87.8366,41.9753],[-87.8366,41.9748],[-87.8416,41.9747],[-87.8416,41.9738],[-87.8379,41.9738],[-87.838,41.9713],[-87.8366,41.9714],[-87.8367,41.9702],[-87.8416,41.9701],[-87.8416,41.972],[-87.8465,41.9719],[-87.8466,41.9664],[-87.8549,41.9661],[-87.8548,41.9669],[-87.8548,41.9672],[-87.855,41.9679],[-87.855,41.9687],[-87.8548,41.9694],[-87.8543,41.9703],[-87.8542,41.9708],[-87.8541,41.9712],[-87.8543,41.9716],[-87.8545,41.9719],[-87.855,41.9723],[-87.8554,41.9725],[-87.8561,41.9726],[-87.8566,41.9725],[-87.8575,41.9721],[-87.8585,41.9715],[-87.8589,41.9714],[-87.8597,41.9716],[-87.8604,41.9719],[-87.8613,41.9726],[-87.8617,41.973],[-87.8619,41.9733],[-87.8808,41.9729],[-87.8808,41.9655],[-87.8808,41.9572],[-87.8816,41.9571],[-87.8838,41.9574],[-87.8838,41.9573],[-87.8903,41.9581],[-87.8929,41.9581],[-87.8929,41.9508],[-87.9038,41.9506],[-87.9147,41.9529],[-87.9148,41.9547],[-87.915,41.9562],[-87.9152,41.9568],[-87.9158,41.9572],[-87.9163,41.9551],[-87.916,41.9551],[-87.9159,41.9523],[-87.9221,41.9538],[-87.9221,41.9538],[-87.9256,41.9546],[-87.9263,41.9547],[-87.9395,41.9568],[-87.9395,41.9584],[-87.9391,41.9584],[-87.9393,41.959],[-87.9394,41.9595],[-87.9394,41.9643],[-87.9397,41.9643],[-87.9397,41.9786],[-87.9399,41.9935],[-87.9388,41.9935],[-87.9386,41.9946],[-87.9383,41.9955],[-87.9379,41.9964],[-87.9374,41.9974],[-87.9367,41.9986],[-87.9361,41.9993],[-87.9354,42.0002],[-87.9347,42.0009],[-87.9351,42.0009],[-87.9351,42.0009],[-87.9353,42.0082],[-87.9336,42.0082],[-87.9335,42.0054],[-87.9303,42.005],[-87.9303,42.0052],[-87.9293,42.005],[-87.9255,42.0077],[-87.9226,42.0059],[-87.9209,42.0039],[-87.9206,42.0039],[-87.9206,42.005],[-87.9138,42.0051],[-87.9138,42.0087],[-87.9133,42.0087],[-87.9133,42.0063],[-87.913,42.0063],[-87.913,42.0051],[-87.9113,42.0051],[-87.9077,42.0052],[-87.9077,42.0089],[-87.9057,42.009],[-87.9024,42.0081],[-87.9024,42.0079],[-87.8984,42.0068],[-87.896,42.0058],[-87.896,42.0056],[-87.8958,42.0057],[-87.8958,42.0059],[-87.8953,42.0057],[-87.8943,42.0057],[-87.8943,42.0027],[-87.8935,42.0027],[-87.8936,42.0033],[-87.8932,42.0033],[-87.8933,42.0039],[-87.8919,42.004],[-87.89,42.0032],[-87.8903,42.0029],[-87.8904,42.0028],[-87.8904,42.0023],[-87.8944,42.0022],[-87.8944,42.0021],[-87.8992,42.0019],[-87.9024,42.0036],[-87.9024,42.004],[-87.9041,42.004],[-87.9041,42.0036],[-87.9031,42.0034],[-87.8995,42.0015],[-87.8974,42.0015],[-87.8975,42.0005],[-87.8894,41.9994],[-87.885,41.9985],[-87.885,41.9983],[-87.8845,41.9982],[-87.8845,41.9951],[-87.8804,41.9952],[-87.8769,41.9857],[-87.8759,41.9857],[-87.8759,41.9829],[-87.8749,41.9802],[-87.875,41.9802],[-87.8737,41.9767],[-87.8759,41.9766],[-87.8759,41.9739],[-87.873,41.974],[-87.873,41.9739],[-87.8726,41.9739],[-87.8726,41.974],[-87.8686,41.9741],[-87.8686,41.9738],[-87.8678,41.9738],[-87.8678,41.974],[-87.8675,41.974],[-87.8675,41.9737],[-87.862,41.9739],[-87.862,41.9743],[-87.8618,41.9752],[-87.8612,41.976],[-87.8607,41.9765],[-87.86,41.977],[-87.8594,41.9776],[-87.8585,41.9787],[-87.8563,41.9805],[-87.8559,41.9811],[-87.8558,41.9822],[-87.856,41.9828],[-87.8566,41.9844],[-87.8564,41.986],[-87.8555,41.9879],[-87.8557,41.9887],[-87.8559,41.9891],[-87.8549,41.9889],[-87.8539,41.9887],[-87.8513,41.9886],[-87.8492,41.9884],[-87.8467,41.988],[-87.8467,41.9879],[-87.8447,41.9876],[-87.8366,41.9864],[-87.8366,41.9863],[-87.835,41.9861],[-87.835,41.986],[-87.8233,41.9844],[-87.8222,41.9931],[-87.8218,41.9954],[-87.8214,41.9969],[-87.8213,42.0114],[-87.8197,42.0114],[-87.8197,42.0119],[-87.8201,42.0119],[-87.8201,42.0156],[-87.8212,42.0155],[-87.8212,42.0186],[-87.8065,42.019],[-87.8068,42.0008],[-87.8054,42.0009],[-87.8053,42.0015],[-87.8011,42.0016],[-87.8011,42.0009],[-87.7996,42.0009],[-87.7995,42],[-87.7972,42],[-87.7972,42.0009],[-87.7971,42.0009],[-87.7912,42.001],[-87.7906,42.0004]],[[-87.8236,41.9821],[-87.8235,41.983],[-87.8253,41.983],[-87.8253,41.982],[-87.8281,41.9819],[-87.8281,41.9839],[-87.8331,41.9838],[-87.8332,41.9837],[-87.8332,41.9836],[-87.8336,41.9836],[-87.8336,41.9827],[-87.8351,41.9827],[-87.8351,41.9811],[-87.8343,41.9812],[-87.8344,41.981],[-87.8344,41.9808],[-87.8351,41.9808],[-87.8351,41.9805],[-87.8289,41.9806],[-87.8289,41.9803],[-87.8287,41.9803],[-87.8287,41.9793],[-87.8281,41.9793],[-87.8281,41.9791],[-87.8287,41.9791],[-87.8286,41.9784],[-87.8297,41.9784],[-87.8297,41.9781],[-87.83,41.9781],[-87.83,41.9773],[-87.8296,41.9773],[-87.8296,41.977],[-87.8336,41.9769],[-87.8336,41.9759],[-87.8244,41.9761],[-87.8236,41.9821]]]]}},{"type":"Feature","properties":{"ward":42,"label":[-87.6331,41.8902]},"geometry":{"type":"MultiPolygon","coordinates":[[[[-87.6268,41.8967],[-87.6268,41.8957],[-87.6282,41.8957],[-87.6282,41.8949],[-87.6228,41.895],[-87.6226,41.8909],[-87.6139,41.8911],[-87.614,41.8926],[-87.6141,41.893],[-87.6135,41.8932],[-87.6127,41.8934],[-87.612,41.8933],[-87.6103,41.8961],[-87.6102,41.8962],[-87.61,41.8962],[-87.6067,41.8962],[-87.6059,41.8963],[-87.6059,41.8962],[-87.6057,41.8962],[-87.605,41.8963],[-87.6025,41.8964],[-87.6024,41.8963],[-87.6023,41.8962],[-87.6023,41.8933],[-87.6024,41.8933],[-87.6098,41.8931],[-87.6098,41.8922],[-87.6009,41.8924],[-87.6007,41.8924],[-87.6006,41.8924],[-87.6006,41.8922],[-87.5985,41.8923],[-87.5985,41.8915],[-87.6006,41.8914],[-87.6006,41.8911],[-87.6007,41.8911],[-87.6009,41.8912],[-87.6095,41.891],[-87.6095,41.8894],[-87.6077,41.8894],[-87.6076,41.8893],[-87.6077,41.8893],[-87.6077,41.8887],[-87.6057,41.8887],[-87.6052,41.8887],[-87.6047,41.8887],[-87.6047,41.8886],[-87.6047,41.8886],[-87.6051,41.8886],[-87.6052,41.8885],[-87.6051,41.8883],[-87.6025,41.8884],[-87.6025,41.8883],[-87.6052,41.8882],[-87.6078,41.8882],[-87.6098,41.888],[-87.6099,41.8872],[-87.6099,41.8871],[-87.61,41.8841],[-87.6127,41.8841],[-87.6128,41.8837],[-87.6129,41.8834],[-87.6131,41.8831],[-87.6135,41.8829],[-87.6143,41.8826],[-87.6158,41.8824],[-87.6161,41.8823],[-87.6163,41.8821],[-87.6165,41.8818],[-87.6165,41.8814],[-87.6158,41.8814],[-87.6157,41.8806],[-87.6165,41.8806],[-87.6165,41.8798],[-87.6164,41.8798],[-87.6163,41.8778],[-87.6162,41.876],[-87.6162,41.8733],[-87.6242,41.8732],[-87.6245,41.8845],[-87.6239,41.8844],[-87.6239,41.8858],[-87.6263,41.8857],[-87.6262,41.8845],[-87.6295,41.8845],[-87.6294,41.8832],[-87.6324,41.8832],[-87.6324,41.8839],[-87.6351,41.8839],[-87.6354,41.8838],[-87.6353,41.8813],[-87.6323,41.8813],[-87.6323,41.8781],[-87.6396,41.878],[-87.6397,41.8812],[-87.6412,41.8812],[-87.6413,41.8857],[-87.6382,41.8857],[-87.6382,41.8858],[-87.6391,41.8868],[-87.6397,41.8892],[-87.6407,41.8902],[-87.6411,41.8908],[-87.6415,41.8914],[-87.6412,41.8914],[-87.6415,41.8919],[-87.6425,41.8929],[-87.6429,41.8932],[-87.6436,41.8935],[-87.6438,41.8939],[-87.6441,41.8941],[-87.6441,41.8943],[-87.6442,41.8965],[-87.6305,41.8966],[-87.6305,41.898],[-87.6298,41.898],[-87.6299,41.8999],[-87.6283,41.8999],[-87.6283,41.9024],[-87.6245,41.9024],[-87.6242,41.9016],[-87.6242,41.9009],[-87.6241,41.9008],[-87.6242,41.9004],[-87.6241,41.8981],[-87.6242,41.8967],[-87.6268,41.8967]]]]}},{"type":"Feature","properties":{"ward":43,"label":[-87.64,41.9229]},"geometry":{"type":"MultiPolygon","coordinates":[[[[-87.6318,41.9331],[-87.6318,41.933],[-87.6314,41.933],[-87.6314,41.9328],[-87.6315,41.9326],[-87.6318,41.9326],[-87.6318,41.9324],[-87.6313,41.9324],[-87.6312,41.9326],[-87.6311,41.9326],[-87.6312,41.9324],[-87.6309,41.9322],[-87.6307,41.9319],[-87.6307,41.9316],[-87.631,41.9308],[-87.631,41.9304],[-87.6309,41.9293],[-87.6307,41.9286],[-87.6304,41.9281],[-87.6306,41.928],[-87.6298,41.9271],[-87.6296,41.9267],[-87.6296,41.9264],[-87.6297,41.9262],[-87.6297,41.9261],[-87.6299,41.9262],[-87.6303,41.9257],[-87.6302,41.9247],[-87.6299,41.9235],[-87.629,41.9227],[-87.6284,41.9231],[-87.6283,41.9231],[-87.6293,41.9225],[-87.6293,41.9226],[-87.6295,41.9224],[-87.6285,41.921],[-87.6278,41.9214],[-87.6277,41.9214],[-87.6289,41.9208],[-87.6289,41.9207],[-87.6286,41.9201],[-87.628,41.9195],[-87.6274,41.9198],[-87.6273,41.9197],[-87.6284,41.9193],[-87.6284,41.9192],[-87.6282,41.9188],[-87.6275,41.9182],[-87.6274,41.918],[-87.6268,41.9183],[-87.6268,41.9183],[-87.6279,41.9176],[-87.6279,41.9177],[-87.6279,41.9176],[-87.6276,41.9172],[-87.6271,41.9168],[-87.6267,41.9164],[-87.6261,41.9168],[-87.626,41.9168],[-87.6268,41.9163],[-87.6263,41.9158],[-87.6258,41.9155],[-87.6249,41.9147],[-87.624,41.9142],[-87.6232,41.9138],[-87.6224,41.9136],[-87.6217,41.9135],[-87.6212,41.9136],[-87.6206,41.9138],[-87.6205,41.9136],[-87.6206,41.9134],[-87.6204,41.9136],[-87.6202,41.9139],[-87.6202,41.9146],[-87.6203,41.9147],[-87.6205,41.9148],[-87.621,41.9148],[-87.6208,41.9149],[-87.6205,41.9149],[-87.6203,41.9148],[-87.6202,41.9146],[-87.6202,41.9139],[-87.6203,41.9136],[-87.6205,41.9134],[-87.6212,41.913],[-87.6225,41.9128],[-87.6233,41.9125],[-87.6247,41.9114],[-87.6247,41.9108],[-87.6251,41.9103],[-87.6251,41.9098],[-87.6251,41.9091],[-87.6248,41.9075],[-87.6236,41.9041],[-87.6258,41.904],[-87.6258,41.9049],[-87.6287,41.9049],[-87.6289,41.9112],[-87.6317,41.9112],[-87.6328,41.9131],[-87.6331,41.9129],[-87.6384,41.9128],[-87.6399,41.9129],[-87.6398,41.9111],[-87.6444,41.911],[-87.6444,41.9139],[-87.6484,41.9138],[-87.6483,41.9109],[-87.6495,41.9109],[-87.6532,41.9136],[-87.6532,41.9137],[-87.6534,41.9137],[-87.6583,41.9172],[-87.6582,41.9173],[-87.6583,41.9198],[-87.6571,41.9199],[-87.6571,41.9217],[-87.6583,41.9217],[-87.6584,41.9235],[-87.6572,41.9235],[-87.6572,41.9248],[-87.6572,41.9253],[-87.6585,41.9253],[-87.6587,41.9326],[-87.6381,41.9329],[-87.6362,41.9329],[-87.6362,41.933],[-87.6318,41.9331]]]]}},{"type":"Feature","properties":{"ward":44,"label":[-87.6405,41.9396]},"geometry":{"type":"MultiPolygon","coordinates":[[[[-87.6568,41.9514],[-87.6568,41.9511],[-87.6532,41.9511],[-87.6532,41.9491],[-87.6495,41.9491],[-87.6494,41.9455],[-87.6461,41.9455],[-87.6457,41.9448],[-87.6418,41.9462],[-87.6422,41.9469],[-87.6421,41.947],[-87.641,41.9474],[-87.6407,41.9476],[-87.638,41.9483],[-87.6375,41.9474],[-87.6363,41.9458],[-87.635,41.9444],[-87.633,41.9425],[-87.633,41.9423],[-87.6332,41.9422],[-87.6334,41.9421],[-87.6339,41.9414],[-87.6339,41.9404],[-87.6336,41.9394],[-87.6331,41.9382],[-87.6323,41.9372],[-87.6324,41.9372],[-87.6322,41.9367],[-87.6322,41.9361],[-87.632,41.9357],[-87.6314,41.9348],[-87.6304,41.9337],[-87.6305,41.9333],[-87.6307,41.9331],[-87.6307,41.9325],[-87.6308,41.9326],[-87.6307,41.9331],[-87.6311,41.933],[-87.6318,41.933],[-87.6318,41.9331],[-87.6362,41.933],[-87.6362,41.9329],[-87.6381,41.9329],[-87.6587,41.9326],[-87.659,41.9398],[-87.6638,41.9398],[-87.6638,41.9402],[-87.6644,41.9402],[-87.6645,41.9434],[-87.6651,41.9434],[-87.6651,41.9438],[-87.6657,41.9438],[-87.6658,41.9465],[-87.6664,41.9465],[-87.6665,41.9507],[-87.6641,41.9507],[-87.6642,41.9525],[-87.6608,41.9526],[-87.6622,41.9544],[-87.6568,41.9545],[-87.6568,41.954],[-87.6568,41.9514]]]]}},{"type":"Feature","properties":{"ward":45,"label":[-87.776,41.978]},"geometry":{"type":"MultiPolygon","coordinates":[[[[-87.7731,42.0115],[-87.7704,42.0062],[-87.7699,42.0064],[-87.7692,42.0049],[-87.7658,42.0033],[-87.7655,42.0037],[-87.7675,42.0047],[-87.7675,42.0083],[-87.7617,42.0083],[-87.7619,42.0032],[-87.762,42.0025],[-87.7623,42.0017],[-87.7529,41.9973],[-87.7658,41.9973],[-87.7703,41.9971],[-87.7755,41.9974],[-87.7874,41.9974],[-87.7876,41.9902],[-87.7864,41.9901],[-87.7779,41.9902],[-87.7779,41.99],[-87.764,41.9827],[-87.7479,41.9729],[-87.7478,41.9694],[-87.7476,41.9685],[-87.7477,41.968],[-87.7476,41.9645],[-87.7476,41.9642],[-87.747,41.9629],[-87.7474,41.9624],[-87.7446,41.9608],[-87.7435,41.9608],[-87.7433,41.9607],[-87.7394,41.9583],[-87.7353,41.956],[-87.734,41.9553],[-87.7309,41.9536],[-87.7276,41.9536],[-87.7277,41.9555],[-87.7228,41.9555],[-87.7221,41.955],[-87.7219,41.955],[-87.7215,41.955],[-87.7215,41.9556],[-87.7179,41.9556],[-87.7178,41.952],[-87.7251,41.9519],[-87.7251,41.9528],[-87.7276,41.9527],[-87.7275,41.9509],[-87.7291,41.9518],[-87.7324,41.9518],[-87.7325,41.9536],[-87.7425,41.9535],[-87.7426,41.9531],[-87.7424,41.9498],[-87.7427,41.9498],[-87.7427,41.9494],[-87.7466,41.9493],[-87.7466,41.9498],[-87.7489,41.9497],[-87.7498,41.9497],[-87.7497,41.9493],[-87.7521,41.9493],[-87.7522,41.9515],[-87.7571,41.9515],[-87.7571,41.9519],[-87.7596,41.9519],[-87.7596,41.9533],[-87.7522,41.9534],[-87.7523,41.9552],[-87.7522,41.9552],[-87.7524,41.9558],[-87.7523,41.9565],[-87.7528,41.957],[-87.7521,41.957],[-87.7525,41.9575],[-87.7573,41.9574],[-87.7573,41.9588],[-87.7672,41.9587],[-87.7674,41.965],[-87.7772,41.9649],[-87.7772,41.9648],[-87.782,41.9647],[-87.782,41.9666],[-87.7772,41.9667],[-87.7773,41.9676],[-87.7782,41.9685],[-87.7856,41.9684],[-87.7854,41.9755],[-87.7859,41.9757],[-87.7867,41.9757],[-87.7865,41.9821],[-87.7878,41.9821],[-87.7876,41.9888],[-87.7954,41.9931],[-87.7948,41.9937],[-87.7947,41.9937],[-87.7917,41.9937],[-87.7917,41.9938],[-87.7923,41.9973],[-87.7909,41.9973],[-87.7909,41.9989],[-87.7902,41.9989],[-87.7896,41.9992],[-87.7906,42.0004],[-87.782,42.0045],[-87.7826,42.0049],[-87.7831,42.0054],[-87.7875,42.0106],[-87.7876,42.0106],[-87.7888,42.012],[-87.7793,42.012],[-87.7791,42.0136],[-87.7791,42.0154],[-87.777,42.0154],[-87.7771,42.012],[-87.7733,42.0119],[-87.7731,42.0115]]]]}},{"type":"Feature","properties":{"ward":46,"label":[-87.6509,41.9607]},"geometry":{"type":"MultiPolygon","coordinates":[[[[-87.6452,41.9697],[-87.6443,41.9699],[-87.6437,41.9692],[-87.6426,41.9684],[-87.6427,41.9683],[-87.643,41.9685],[-87.6433,41.9683],[-87.643,41.9681],[-87.6428,41.968],[-87.6426,41.9682],[-87.6427,41.9682],[-87.6426,41.9683],[-87.6417,41.9676],[-87.6405,41.9669],[-87.639,41.9666],[-87.6374,41.966],[-87.6364,41.9658],[-87.6351,41.9655],[-87.633,41.9654],[-87.632,41.9651],[-87.632,41.9659],[-87.6318,41.9667],[-87.6316,41.9674],[-87.631,41.9684],[-87.631,41.9686],[-87.6312,41.9687],[-87.6314,41.9688],[-87.6316,41.9688],[-87.6318,41.9687],[-87.6319,41.9685],[-87.6319,41.9684],[-87.6318,41.9682],[-87.6318,41.9681],[-87.632,41.9683],[-87.632,41.9685],[-87.6318,41.9688],[-87.6314,41.9689],[-87.6311,41.9688],[-87.6309,41.9685],[-87.6309,41.9683],[-87.6313,41.9676],[-87.6316,41.967],[-87.6319,41.9659],[-87.6319,41.9649],[-87.6317,41.964],[-87.6312,41.9637],[-87.631,41.9632],[-87.6311,41.9628],[-87.6315,41.9625],[-87.6335,41.9617],[-87.6342,41.9614],[-87.6346,41.9611],[-87.6353,41.9605],[-87.636,41.9599],[-87.6366,41.9595],[-87.6375,41.9594],[-87.6387,41.9594],[-87.6401,41.9597],[-87.6403,41.9592],[-87.6404,41.9592],[-87.6402,41.9597],[-87.6405,41.9598],[-87.6408,41.96],[-87.6409,41.9602],[-87.6409,41.9605],[-87.6407,41.9608],[-87.6404,41.9609],[-87.6401,41.9608],[-87.6393,41.9604],[-87.6388,41.9603],[-87.6379,41.9604],[-87.637,41.9606],[-87.6361,41.9612],[-87.6354,41.9619],[-87.6353,41.9621],[-87.6354,41.9624],[-87.6357,41.9628],[-87.6361,41.9629],[-87.6368,41.9629],[-87.6379,41.9628],[-87.6379,41.9627],[-87.6384,41.9626],[-87.6384,41.9627],[-87.6412,41.9623],[-87.6419,41.9621],[-87.6421,41.9619],[-87.6422,41.9616],[-87.6423,41.9614],[-87.6422,41.961],[-87.6417,41.9604],[-87.6415,41.9602],[-87.6416,41.9594],[-87.641,41.9594],[-87.641,41.9593],[-87.6416,41.9593],[-87.6417,41.9584],[-87.6413,41.9559],[-87.641,41.9548],[-87.6406,41.9536],[-87.6405,41.9536],[-87.6398,41.9519],[-87.638,41.9483],[-87.6407,41.9476],[-87.641,41.9474],[-87.6421,41.947],[-87.6422,41.9469],[-87.6418,41.9462],[-87.6457,41.9448],[-87.6461,41.9455],[-87.6494,41.9455],[-87.6495,41.9491],[-87.6532,41.9491],[-87.6532,41.9511],[-87.6568,41.9511],[-87.6568,41.954],[-87.6568,41.9545],[-87.6622,41.9544],[-87.6608,41.9526],[-87.6642,41.9525],[-87.6641,41.9507],[-87.6658,41.9507],[-87.6658,41.9511],[-87.669,41.9511],[-87.669,41.9543],[-87.6642,41.9544],[-87.6643,41.9573],[-87.6643,41.9576],[-87.6645,41.958],[-87.6648,41.9588],[-87.666,41.9617],[-87.6675,41.9689],[-87.661,41.969],[-87.6611,41.9714],[-87.6597,41.9715],[-87.6595,41.9715],[-87.6549,41.9716],[-87.6541,41.9716],[-87.654,41.9716],[-87.6504,41.9716],[-87.6496,41.9692],[-87.6452,41.9697]]]]}},{"type":"Feature","properties":{"ward":47,"label":[-87.6801,41.9587]},"geometry":{"type":"MultiPolygon","coordinates":[[[[-87.6598,41.9733],[-87.6598,41.9727],[-87.6611,41.9727],[-87.661,41.969],[-87.6675,41.9689],[-87.666,41.9617],[-87.6648,41.9588],[-87.6645,41.958],[-87.6643,41.9576],[-87.6643,41.9573],[-87.6642,41.9544],[-87.669,41.9543],[-87.669,41.9511],[-87.6658,41.9511],[-87.6658,41.9507],[-87.6665,41.9507],[-87.6664,41.9465],[-87.6658,41.9465],[-87.6657,41.9438],[-87.6651,41.9438],[-87.6651,41.9434],[-87.676,41.9432],[-87.6761,41.9451],[-87.6797,41.945],[-87.6798,41.9464],[-87.681,41.9464],[-87.681,41.9468],[-87.6883,41.9467],[-87.688,41.9361],[-87.6885,41.9364],[-87.69,41.9366],[-87.6904,41.9369],[-87.6907,41.9374],[-87.6911,41.9382],[-87.6915,41.9388],[-87.6923,41.9392],[-87.6924,41.9394],[-87.6928,41.9395],[-87.6936,41.9403],[-87.6941,41.941],[-87.6953,41.9428],[-87.6954,41.9432],[-87.6962,41.9466],[-87.6963,41.9476],[-87.6966,41.9485],[-87.6969,41.95],[-87.6968,41.9504],[-87.6958,41.9522],[-87.6946,41.9537],[-87.6946,41.9539],[-87.6944,41.9547],[-87.6945,41.9554],[-87.6944,41.9568],[-87.6943,41.9568],[-87.6943,41.957],[-87.6944,41.9571],[-87.6943,41.9579],[-87.6946,41.9592],[-87.6947,41.9611],[-87.6951,41.9621],[-87.6956,41.9632],[-87.697,41.9647],[-87.6986,41.9662],[-87.6975,41.9662],[-87.698,41.9667],[-87.6888,41.9668],[-87.689,41.9704],[-87.6792,41.9706],[-87.6793,41.9724],[-87.6763,41.9724],[-87.6763,41.9733],[-87.6696,41.9734],[-87.6696,41.9743],[-87.6682,41.9744],[-87.6684,41.9762],[-87.6599,41.9763],[-87.6598,41.9733]]]]}},{"type":"Feature","properties":{"ward":48,"label":[-87.6621,41.9899]},"geometry":{"type":"MultiPolygon","coordinates":[[[[-87.6443,41.9699],[-87.6496,41.9692],[-87.6504,41.9716],[-87.654,41.9716],[-87.6541,41.9716],[-87.6549,41.9716],[-87.6611,41.9714],[-87.6611,41.9727],[-87.6598,41.9727],[-87.6599,41.9763],[-87.6684,41.9762],[-87.6683,41.9797],[-87.6684,41.9815],[-87.6686,41.983],[-87.6692,41.9855],[-87.6696,41.9868],[-87.6698,41.9884],[-87.67,41.9895],[-87.6702,41.9965],[-87.6706,41.9981],[-87.6551,41.9982],[-87.6551,41.9983],[-87.6547,41.9983],[-87.6546,41.9982],[-87.6544,41.9977],[-87.6543,41.996],[-87.6543,41.996],[-87.6544,41.9961],[-87.6545,41.9961],[-87.6546,41.996],[-87.6547,41.9959],[-87.6546,41.9957],[-87.6545,41.9954],[-87.6546,41.9945],[-87.6544,41.9945],[-87.6543,41.9941],[-87.6543,41.9939],[-87.6544,41.9939],[-87.6545,41.9937],[-87.6544,41.9937],[-87.6545,41.9935],[-87.6545,41.9934],[-87.6543,41.9931],[-87.6541,41.993],[-87.6543,41.9918],[-87.6543,41.991],[-87.6544,41.991],[-87.6542,41.9909],[-87.6542,41.9903],[-87.6542,41.9902],[-87.6543,41.9901],[-87.6542,41.9899],[-87.6542,41.9885],[-87.6543,41.9885],[-87.6543,41.9884],[-87.6535,41.9876],[-87.6531,41.9873],[-87.651,41.9857],[-87.6499,41.9854],[-87.6494,41.9864],[-87.6494,41.9864],[-87.6504,41.9843],[-87.6507,41.9832],[-87.6507,41.9825],[-87.6507,41.9807],[-87.6506,41.9803],[-87.6502,41.9797],[-87.6504,41.9796],[-87.6505,41.9795],[-87.6502,41.9794],[-87.6498,41.9789],[-87.6488,41.9782],[-87.6486,41.9778],[-87.6474,41.9778],[-87.647,41.9776],[-87.6467,41.9775],[-87.6461,41.9778],[-87.6467,41.9774],[-87.6465,41.9772],[-87.6464,41.9769],[-87.6462,41.9731],[-87.646,41.9725],[-87.6455,41.9715],[-87.645,41.9708],[-87.6443,41.9699]]]]}},{"type":"Feature","properties":{"ward":49,"label":[-87.6701,42.0113]},"geometry":{"type":"MultiPolygon","coordinates":[[[[-87.6573,42.0042],[-87.6572,42.0037],[-87.6571,42.0036],[-87.657,42.0032],[-87.657,42.0031],[-87.6569,42.0029],[-87.6569,42.0025],[-87.6566,42.0022],[-87.6564,42.0021],[-87.656,42.0011],[-87.656,42.0007],[-87.6557,41.9996],[-87.6547,41.9983],[-87.6551,41.9983],[-87.6551,41.9982],[-87.6706,41.9981],[-87.6719,42.0017],[-87.6751,42.0016],[-87.6752,42.0044],[-87.6798,42.0043],[-87.6819,42.0091],[-87.6831,42.0122],[-87.6876,42.0123],[-87.6875,42.0174],[-87.6876,42.0174],[-87.6902,42.0174],[-87.6902,42.0195],[-87.6731,42.0194],[-87.6762,42.0219],[-87.6771,42.023],[-87.6651,42.0229],[-87.6653,42.0227],[-87.6653,42.0226],[-87.6651,42.0224],[-87.6648,42.0222],[-87.6646,42.0219],[-87.6647,42.0217],[-87.6646,42.0216],[-87.6642,42.0213],[-87.664,42.0213],[-87.6638,42.0205],[-87.6637,42.0204],[-87.6639,42.0203],[-87.6639,42.0202],[-87.664,42.0202],[-87.6639,42.0197],[-87.6639,42.0196],[-87.6639,42.0195],[-87.6636,42.0195],[-87.6636,42.0194],[-87.6639,42.0193],[-87.6639,42.0192],[-87.664,42.0192],[-87.664,42.0191],[-87.6637,42.0187],[-87.6636,42.0186],[-87.6634,42.0186],[-87.6633,42.0184],[-87.6633,42.0182],[-87.6634,42.0181],[-87.6633,42.0178],[-87.6631,42.0177],[-87.6631,42.0173],[-87.6632,42.0173],[-87.6632,42.0172],[-87.663,42.0171],[-87.6631,42.0169],[-87.663,42.0167],[-87.6628,42.0166],[-87.6627,42.0162],[-87.6626,42.016],[-87.6626,42.0159],[-87.6625,42.0154],[-87.6622,42.015],[-87.6621,42.015],[-87.6618,42.014],[-87.6616,42.0137],[-87.6615,42.0135],[-87.6616,42.0133],[-87.6612,42.0128],[-87.6612,42.0128],[-87.6612,42.0126],[-87.6609,42.0122],[-87.6611,42.0122],[-87.661,42.012],[-87.6606,42.0116],[-87.6601,42.0112],[-87.6603,42.0112],[-87.6601,42.011],[-87.6592,42.0102],[-87.6589,42.0098],[-87.6589,42.0098],[-87.659,42.0098],[-87.6588,42.0097],[-87.6575,42.0085],[-87.657,42.008],[-87.6565,42.0074],[-87.6553,42.0067],[-87.6558,42.0063],[-87.6574,42.0063],[-87.6574,42.0056],[-87.6573,42.0051],[-87.6568,42.0043],[-87.6573,42.0042]]]]}},{"type":"Feature","properties":{"ward":50,"label":[-87.7017,42.001]},"geometry":{"type":"MultiPolygon","coordinates":[[[[-87.6819,42.009],[-87.6827,42.0089],[-87.6824,42.0084],[-87.6901,42.0081],[-87.6902,42.0086],[-87.695,42.0086],[-87.6949,42.0049],[-87.6907,42.005],[-87.6907,42.0059],[-87.6901,42.0059],[-87.6899,41.9995],[-87.6875,41.9996],[-87.6875,42],[-87.6802,42.0001],[-87.6802,42.0003],[-87.6779,42.0004],[-87.6768,41.998],[-87.6826,41.9979],[-87.6824,41.9942],[-87.6983,41.994],[-87.6982,41.9905],[-87.703,41.9904],[-87.703,41.9883],[-87.7033,41.988],[-87.6992,41.9855],[-87.6992,41.9831],[-87.7069,41.9831],[-87.7075,41.985],[-87.7075,41.9852],[-87.7078,41.986],[-87.7079,41.9863],[-87.7078,41.9864],[-87.7078,41.9865],[-87.7079,41.9865],[-87.7082,41.987],[-87.7085,41.9882],[-87.7085,41.9885],[-87.7087,41.9889],[-87.7091,41.9904],[-87.7214,41.9902],[-87.7214,41.9907],[-87.722,41.9907],[-87.7221,41.9937],[-87.7233,41.9937],[-87.7234,41.9968],[-87.7227,41.9968],[-87.7228,41.9973],[-87.7095,41.9974],[-87.7095,42.0045],[-87.7093,42.0105],[-87.7092,42.0117],[-87.709,42.0191],[-87.6902,42.0195],[-87.6902,42.0174],[-87.6876,42.0174],[-87.6875,42.0174],[-87.6876,42.0123],[-87.6831,42.0122],[-87.6819,42.009]]]]}}]}